{"type":"FeatureCollection","crs":{"type":"name","properties":{"name":"EPSG:4326"}},"features":[{"type":"Feature","geometry":{"type":"Point","coordinates":[116.395716,39.93758]},"properties":{"amenity":"bank"},"id":"fid-681222fb_17323acee17_-7980"},{"type":"Feature","geometry":{"type":"Point","coordinates":[116.428564,39.893251]},"properties":{"amenity":"bank"},"id":"fid-681222fb_17323acee17_-797f"},{"type":"Feature","geometry":{"type":"Point","coordinates":[116.362305,39.906308]},"properties":{"amenity":"bank"},"id":"fid-681222fb_17323acee17_-797e"},{"type":"Feature","geometry":{"type":"Point","coordinates":[116.411386,39.914427]},"properties":{"amenity":"atm"},"id":"fid-681222fb_17323acee17_-797d"},{"type":"Feature","geometry":{"type":"Point","coordinates":[116.429219,39.933063]},"properties":{"amenity":"bank"},"id":"fid-681222fb_17323acee17_-797c"},{"type":"Feature","geometry":{"type":"Point","coordinates":[116.434336,39.913718]},"properties":{"amenity":"bank"},"id":"fid-681222fb_17323acee17_-797b"},{"type":"Feature","geometry":{"type":"Point","coordinates":[116.434154,39.912707]},"properties":{"amenity":"bank"},"id":"fid-681222fb_17323acee17_-797a"},{"type":"Feature","geometry":{"type":"Point","coordinates":[116.434198,39.913327]},"properties":{"amenity":"bank"},"id":"fid-681222fb_17323acee17_-7979"},{"type":"Feature","geometry":{"type":"Point","coordinates":[116.434202,39.914092]},"properties":{"amenity":"bank"},"id":"fid-681222fb_17323acee17_-7978"},{"type":"Feature","geometry":{"type":"Point","coordinates":[116.439332,39.907681]},"properties":{"amenity":"bank"},"id":"fid-681222fb_17323acee17_-7977"},{"type":"Feature","geometry":{"type":"Point","coordinates":[116.412453,39.918651]},"properties":{"amenity":"bank"},"id":"fid-681222fb_17323acee17_-7976"},{"type":"Feature","geometry":{"type":"Point","coordinates":[116.410778,39.908683]},"properties":{"amenity":"bank"},"id":"fid-681222fb_17323acee17_-7975"},{"type":"Feature","geometry":{"type":"Point","coordinates":[116.42818,39.894026]},"properties":{"amenity":"bank"},"id":"fid-681222fb_17323acee17_-7974"},{"type":"Feature","geometry":{"type":"Point","coordinates":[116.362692,39.90628]},"properties":{"amenity":"bank"},"id":"fid-681222fb_17323acee17_-7973"},{"type":"Feature","geometry":{"type":"Point","coordinates":[116.414479,39.893331]},"properties":{"amenity":"bank"},"id":"fid-681222fb_17323acee17_-7972"},{"type":"Feature","geometry":{"type":"Point","coordinates":[116.409989,39.91577]},"properties":{"amenity":"bank"},"id":"fid-681222fb_17323acee17_-7971"},{"type":"Feature","geometry":{"type":"Point","coordinates":[116.411956,39.908901]},"properties":{"amenity":"atm"},"id":"fid-681222fb_17323acee17_-7970"},{"type":"Feature","geometry":{"type":"Point","coordinates":[116.415745,39.918384]},"properties":{"amenity":"bank"},"id":"fid-681222fb_17323acee17_-796f"},{"type":"Feature","geometry":{"type":"Point","coordinates":[116.339129,39.889363]},"properties":{"amenity":"bank"},"id":"fid-681222fb_17323acee17_-796e"},{"type":"Feature","geometry":{"type":"Point","coordinates":[116.405393,39.933254]},"properties":{"amenity":"atm"},"id":"fid-681222fb_17323acee17_-796d"},{"type":"Feature","geometry":{"type":"Point","coordinates":[116.401089,39.940693]},"properties":{"amenity":"atm"},"id":"fid-681222fb_17323acee17_-796c"},{"type":"Feature","geometry":{"type":"Point","coordinates":[116.413459,39.892492]},"properties":{"amenity":"bank"},"id":"fid-681222fb_17323acee17_-796b"},{"type":"Feature","geometry":{"type":"Point","coordinates":[116.37735,39.933008]},"properties":{"amenity":"bank"},"id":"fid-681222fb_17323acee17_-796a"},{"type":"Feature","geometry":{"type":"Point","coordinates":[116.35757,39.910168]},"properties":{"amenity":"bank"},"id":"fid-681222fb_17323acee17_-7969"},{"type":"Feature","geometry":{"type":"Point","coordinates":[116.358913,39.907883]},"properties":{"amenity":"bank"},"id":"fid-681222fb_17323acee17_-7968"},{"type":"Feature","geometry":{"type":"Point","coordinates":[116.341933,39.927986]},"properties":{"amenity":"bank"},"id":"fid-681222fb_17323acee17_-7967"},{"type":"Feature","geometry":{"type":"Point","coordinates":[116.356076,39.889164]},"properties":{"amenity":"bank"},"id":"fid-681222fb_17323acee17_-7966"},{"type":"Feature","geometry":{"type":"Point","coordinates":[116.355869,39.889747]},"properties":{"amenity":"bank"},"id":"fid-681222fb_17323acee17_-7965"},{"type":"Feature","geometry":{"type":"Point","coordinates":[116.417733,39.903768]},"properties":{"amenity":"atm"},"id":"fid-681222fb_17323acee17_-7964"},{"type":"Feature","geometry":{"type":"Point","coordinates":[116.384627,39.884956]},"properties":{"amenity":"atm"},"id":"fid-681222fb_17323acee17_-7963"},{"type":"Feature","geometry":{"type":"Point","coordinates":[116.417221,39.910069]},"properties":{"amenity":"bank"},"id":"fid-681222fb_17323acee17_-7962"},{"type":"Feature","geometry":{"type":"Point","coordinates":[116.416782,39.898975]},"properties":{"amenity":"bank"},"id":"fid-681222fb_17323acee17_-7961"},{"type":"Feature","geometry":{"type":"Point","coordinates":[116.425394,39.941244]},"properties":{"amenity":"bank"},"id":"fid-681222fb_17323acee17_-7960"},{"type":"Feature","geometry":{"type":"Point","coordinates":[116.404904,39.892835]},"properties":{"amenity":"atm"},"id":"fid-681222fb_17323acee17_-795f"},{"type":"Feature","geometry":{"type":"Point","coordinates":[116.362819,39.91757]},"properties":{"amenity":"bank"},"id":"fid-681222fb_17323acee17_-795e"},{"type":"Feature","geometry":{"type":"Point","coordinates":[116.363308,39.884791]},"properties":{"amenity":"bank"},"id":"fid-681222fb_17323acee17_-795d"},{"type":"Feature","geometry":{"type":"Point","coordinates":[116.436471,39.914088]},"properties":{"amenity":"bank"},"id":"fid-681222fb_17323acee17_-795c"},{"type":"Feature","geometry":{"type":"Point","coordinates":[116.435171,39.931198]},"properties":{"amenity":"bank"},"id":"fid-681222fb_17323acee17_-795b"},{"type":"Feature","geometry":{"type":"Point","coordinates":[116.362022,39.923709]},"properties":{"amenity":"atm"},"id":"fid-681222fb_17323acee17_-795a"},{"type":"Feature","geometry":{"type":"Point","coordinates":[116.372761,39.878188]},"properties":{"amenity":"bank"},"id":"fid-681222fb_17323acee17_-7959"},{"type":"Feature","geometry":{"type":"Point","coordinates":[116.408649,39.935754]},"properties":{"amenity":"atm"},"id":"fid-681222fb_17323acee17_-7958"},{"type":"Feature","geometry":{"type":"Point","coordinates":[116.373426,39.912102]},"properties":{"amenity":"atm"},"id":"fid-681222fb_17323acee17_-7957"},{"type":"Feature","geometry":{"type":"Point","coordinates":[116.373427,39.912082]},"properties":{"amenity":"bank"},"id":"fid-681222fb_17323acee17_-7956"},{"type":"Feature","geometry":{"type":"Point","coordinates":[116.412953,39.89701]},"properties":{"amenity":"bank"},"id":"fid-681222fb_17323acee17_-7955"},{"type":"Feature","geometry":{"type":"Point","coordinates":[116.438103,39.924746]},"properties":{"amenity":"bank"},"id":"fid-681222fb_17323acee17_-7954"},{"type":"Feature","geometry":{"type":"Point","coordinates":[116.37522,39.878739]},"properties":{"amenity":"bank"},"id":"fid-681222fb_17323acee17_-7953"},{"type":"Feature","geometry":{"type":"Point","coordinates":[116.365775,39.945176]},"properties":{"amenity":"bank"},"id":"fid-681222fb_17323acee17_-7952"},{"type":"Feature","geometry":{"type":"Point","coordinates":[116.418201,39.895438]},"properties":{"amenity":"bank"},"id":"fid-681222fb_17323acee17_-7951"},{"type":"Feature","geometry":{"type":"Point","coordinates":[116.417965,39.895656]},"properties":{"amenity":"bank"},"id":"fid-681222fb_17323acee17_-7950"},{"type":"Feature","geometry":{"type":"Point","coordinates":[116.426627,39.923905]},"properties":{"amenity":"bank"},"id":"fid-681222fb_17323acee17_-794f"},{"type":"Feature","geometry":{"type":"Point","coordinates":[116.361077,39.918826]},"properties":{"amenity":"bank"},"id":"fid-681222fb_17323acee17_-794e"},{"type":"Feature","geometry":{"type":"Point","coordinates":[116.372648,39.906482]},"properties":{"amenity":"bank"},"id":"fid-681222fb_17323acee17_-794d"},{"type":"Feature","geometry":{"type":"Point","coordinates":[116.374802,39.903645]},"properties":{"amenity":"bank"},"id":"fid-681222fb_17323acee17_-794c"},{"type":"Feature","geometry":{"type":"Point","coordinates":[116.374829,39.90317]},"properties":{"amenity":"bank"},"id":"fid-681222fb_17323acee17_-794b"},{"type":"Feature","geometry":{"type":"Point","coordinates":[116.375034,39.914359]},"properties":{"amenity":"bank"},"id":"fid-681222fb_17323acee17_-794a"},{"type":"Feature","geometry":{"type":"Point","coordinates":[116.419515,39.899069]},"properties":{"amenity":"bank"},"id":"fid-681222fb_17323acee17_-7949"},{"type":"Feature","geometry":{"type":"Point","coordinates":[116.417313,39.935437]},"properties":{"amenity":"atm"},"id":"fid-681222fb_17323acee17_-7948"},{"type":"Feature","geometry":{"type":"Point","coordinates":[116.433182,39.923419]},"properties":{"amenity":"bank"},"id":"fid-681222fb_17323acee17_-7947"},{"type":"Feature","geometry":{"type":"Point","coordinates":[116.417038,39.939936]},"properties":{"amenity":"bank"},"id":"fid-681222fb_17323acee17_-7946"},{"type":"Feature","geometry":{"type":"Point","coordinates":[116.418294,39.923925]},"properties":{"amenity":"bank"},"id":"fid-681222fb_17323acee17_-7945"},{"type":"Feature","geometry":{"type":"Point","coordinates":[116.417522,39.914758]},"properties":{"amenity":"bank"},"id":"fid-681222fb_17323acee17_-7944"},{"type":"Feature","geometry":{"type":"Point","coordinates":[116.426225,39.905419]},"properties":{"amenity":"bank"},"id":"fid-681222fb_17323acee17_-7943"},{"type":"Feature","geometry":{"type":"Point","coordinates":[116.432496,39.940637]},"properties":{"amenity":"bank"},"id":"fid-681222fb_17323acee17_-7942"},{"type":"Feature","geometry":{"type":"Point","coordinates":[116.431411,39.940689]},"properties":{"amenity":"bank"},"id":"fid-681222fb_17323acee17_-7941"},{"type":"Feature","geometry":{"type":"Point","coordinates":[116.41196,39.908892]},"properties":{"amenity":"bank"},"id":"fid-681222fb_17323acee17_-7940"},{"type":"Feature","geometry":{"type":"Point","coordinates":[116.374002,39.917435]},"properties":{"amenity":"bank"},"id":"fid-681222fb_17323acee17_-793f"},{"type":"Feature","geometry":{"type":"Point","coordinates":[116.430459,39.889008]},"properties":{"amenity":"bank"},"id":"fid-681222fb_17323acee17_-793e"},{"type":"Feature","geometry":{"type":"Point","coordinates":[116.374001,39.917636]},"properties":{"amenity":"bank"},"id":"fid-681222fb_17323acee17_-793d"},{"type":"Feature","geometry":{"type":"Point","coordinates":[116.417182,39.943483]},"properties":{"amenity":"bank"},"id":"fid-681222fb_17323acee17_-793c"},{"type":"Feature","geometry":{"type":"Point","coordinates":[116.431204,39.934227]},"properties":{"amenity":"bank"},"id":"fid-681222fb_17323acee17_-793b"},{"type":"Feature","geometry":{"type":"Point","coordinates":[116.436663,39.940247]},"properties":{"amenity":"bank"},"id":"fid-681222fb_17323acee17_-793a"},{"type":"Feature","geometry":{"type":"Point","coordinates":[116.43674,39.940403]},"properties":{"amenity":"bank"},"id":"fid-681222fb_17323acee17_-7939"},{"type":"Feature","geometry":{"type":"Point","coordinates":[116.436204,39.936822]},"properties":{"amenity":"bank"},"id":"fid-681222fb_17323acee17_-7938"},{"type":"Feature","geometry":{"type":"Point","coordinates":[116.43504,39.939981]},"properties":{"amenity":"bank"},"id":"fid-681222fb_17323acee17_-7937"},{"type":"Feature","geometry":{"type":"Point","coordinates":[116.435426,39.940335]},"properties":{"amenity":"bank"},"id":"fid-681222fb_17323acee17_-7936"},{"type":"Feature","geometry":{"type":"Point","coordinates":[116.439733,39.934082]},"properties":{"amenity":"bank"},"id":"fid-681222fb_17323acee17_-7935"},{"type":"Feature","geometry":{"type":"Point","coordinates":[116.42168,39.876331]},"properties":{"amenity":"bank"},"id":"fid-681222fb_17323acee17_-7934"},{"type":"Feature","geometry":{"type":"Point","coordinates":[116.429946,39.897351]},"properties":{"amenity":"bank"},"id":"fid-681222fb_17323acee17_-7933"},{"type":"Feature","geometry":{"type":"Point","coordinates":[116.439496,39.940724]},"properties":{"amenity":"bank"},"id":"fid-681222fb_17323acee17_-7932"},{"type":"Feature","geometry":{"type":"Point","coordinates":[116.417238,39.92894]},"properties":{"amenity":"atm"},"id":"fid-681222fb_17323acee17_-7931"},{"type":"Feature","geometry":{"type":"Point","coordinates":[116.411794,39.933218]},"properties":{"amenity":"atm"},"id":"fid-681222fb_17323acee17_-7930"},{"type":"Feature","geometry":{"type":"Point","coordinates":[116.4172,39.928463]},"properties":{"amenity":"atm"},"id":"fid-681222fb_17323acee17_-792f"},{"type":"Feature","geometry":{"type":"Point","coordinates":[116.365211,39.917198]},"properties":{"amenity":"bank"},"id":"fid-681222fb_17323acee17_-792e"},{"type":"Feature","geometry":{"type":"Point","coordinates":[116.413528,39.941241]},"properties":{"amenity":"bank"},"id":"fid-681222fb_17323acee17_-792d"},{"type":"Feature","geometry":{"type":"Point","coordinates":[116.412892,39.940537]},"properties":{"amenity":"bank"},"id":"fid-681222fb_17323acee17_-792c"},{"type":"Feature","geometry":{"type":"Point","coordinates":[116.408744,39.942045]},"properties":{"amenity":"bank"},"id":"fid-681222fb_17323acee17_-792b"},{"type":"Feature","geometry":{"type":"Point","coordinates":[116.369857,39.916887]},"properties":{"amenity":"bank"},"id":"fid-681222fb_17323acee17_-792a"},{"type":"Feature","geometry":{"type":"Point","coordinates":[116.372949,39.914927]},"properties":{"amenity":"bank"},"id":"fid-681222fb_17323acee17_-7929"},{"type":"Feature","geometry":{"type":"Point","coordinates":[116.431077,39.89722]},"properties":{"amenity":"bank"},"id":"fid-681222fb_17323acee17_-7928"},{"type":"Feature","geometry":{"type":"Point","coordinates":[116.405556,39.928454]},"properties":{"amenity":"bank"},"id":"fid-681222fb_17323acee17_-7927"},{"type":"Feature","geometry":{"type":"Point","coordinates":[116.373196,39.907825]},"properties":{"amenity":"bank"},"id":"fid-681222fb_17323acee17_-7926"},{"type":"Feature","geometry":{"type":"Point","coordinates":[116.403041,39.900076]},"properties":{"amenity":"bank"},"id":"fid-681222fb_17323acee17_-7925"},{"type":"Feature","geometry":{"type":"Point","coordinates":[116.375748,39.909882]},"properties":{"amenity":"bank"},"id":"fid-681222fb_17323acee17_-7924"},{"type":"Feature","geometry":{"type":"Point","coordinates":[116.441092,39.936526]},"properties":{"amenity":"atm"},"id":"fid-681222fb_17323acee17_-7923"},{"type":"Feature","geometry":{"type":"Point","coordinates":[116.442592,39.936574]},"properties":{"amenity":"atm"},"id":"fid-681222fb_17323acee17_-7922"},{"type":"Feature","geometry":{"type":"Point","coordinates":[116.438751,39.933383]},"properties":{"amenity":"atm"},"id":"fid-681222fb_17323acee17_-7921"},{"type":"Feature","geometry":{"type":"Point","coordinates":[116.438649,39.933387]},"properties":{"amenity":"bank"},"id":"fid-681222fb_17323acee17_-7920"},{"type":"Feature","geometry":{"type":"Point","coordinates":[116.437562,39.933213]},"properties":{"amenity":"atm"},"id":"fid-681222fb_17323acee17_-791f"},{"type":"Feature","geometry":{"type":"Point","coordinates":[116.436223,39.933136]},"properties":{"amenity":"bank"},"id":"fid-681222fb_17323acee17_-791e"},{"type":"Feature","geometry":{"type":"Point","coordinates":[116.349866,39.940257]},"properties":{"amenity":"bank"},"id":"fid-681222fb_17323acee17_-791d"},{"type":"Feature","geometry":{"type":"Point","coordinates":[116.442815,39.936577]},"properties":{"amenity":"bank"},"id":"fid-681222fb_17323acee17_-791c"},{"type":"Feature","geometry":{"type":"Point","coordinates":[116.434346,39.945322]},"properties":{"amenity":"bank"},"id":"fid-681222fb_17323acee17_-791b"},{"type":"Feature","geometry":{"type":"Point","coordinates":[116.436907,39.933179]},"properties":{"amenity":"bank"},"id":"fid-681222fb_17323acee17_-791a"},{"type":"Feature","geometry":{"type":"Point","coordinates":[116.426534,39.924057]},"properties":{"amenity":"bank"},"id":"fid-681222fb_17323acee17_-7919"},{"type":"Feature","geometry":{"type":"Point","coordinates":[116.440573,39.92888]},"properties":{"amenity":"bank"},"id":"fid-681222fb_17323acee17_-7918"},{"type":"Feature","geometry":{"type":"Point","coordinates":[116.440567,39.929513]},"properties":{"amenity":"bank"},"id":"fid-681222fb_17323acee17_-7917"},{"type":"Feature","geometry":{"type":"Point","coordinates":[116.438268,39.932567]},"properties":{"amenity":"bank"},"id":"fid-681222fb_17323acee17_-7916"},{"type":"Feature","geometry":{"type":"Point","coordinates":[116.437343,39.933267]},"properties":{"amenity":"bank"},"id":"fid-681222fb_17323acee17_-7915"},{"type":"Feature","geometry":{"type":"Point","coordinates":[116.443348,39.92994]},"properties":{"amenity":"bank"},"id":"fid-681222fb_17323acee17_-7914"},{"type":"Feature","geometry":{"type":"Point","coordinates":[116.436282,39.930982]},"properties":{"amenity":"bank"},"id":"fid-681222fb_17323acee17_-7913"},{"type":"Feature","geometry":{"type":"Point","coordinates":[116.372809,39.908214]},"properties":{"amenity":"bank"},"id":"fid-681222fb_17323acee17_-7912"},{"type":"Feature","geometry":{"type":"Point","coordinates":[116.348068,39.939857]},"properties":{"amenity":"bank"},"id":"fid-681222fb_17323acee17_-7911"},{"type":"Feature","geometry":{"type":"Point","coordinates":[116.348224,39.939892]},"properties":{"amenity":"bank"},"id":"fid-681222fb_17323acee17_-7910"},{"type":"Feature","geometry":{"type":"Point","coordinates":[116.403027,39.936824]},"properties":{"amenity":"bank"},"id":"fid-681222fb_17323acee17_-790f"},{"type":"Feature","geometry":{"type":"Point","coordinates":[116.367083,39.906017]},"properties":{"amenity":"bank"},"id":"fid-681222fb_17323acee17_-790e"},{"type":"Feature","geometry":{"type":"Point","coordinates":[116.398241,39.898193]},"properties":{"amenity":"bank"},"id":"fid-681222fb_17323acee17_-790d"},{"type":"Feature","geometry":{"type":"Point","coordinates":[116.417189,39.941499]},"properties":{"amenity":"atm"},"id":"fid-681222fb_17323acee17_-790c"},{"type":"Feature","geometry":{"type":"Point","coordinates":[116.391043,39.89008]},"properties":{"amenity":"atm"},"id":"fid-681222fb_17323acee17_-790b"},{"type":"Feature","geometry":{"type":"Point","coordinates":[116.417556,39.926373]},"properties":{"amenity":"bank"},"id":"fid-681222fb_17323acee17_-790a"},{"type":"Feature","geometry":{"type":"Point","coordinates":[116.417454,39.917928]},"properties":{"amenity":"bank"},"id":"fid-681222fb_17323acee17_-7909"},{"type":"Feature","geometry":{"type":"Point","coordinates":[116.417358,39.910703]},"properties":{"amenity":"bank"},"id":"fid-681222fb_17323acee17_-7908"},{"type":"Feature","geometry":{"type":"Point","coordinates":[116.357855,39.878106]},"properties":{"amenity":"bank"},"id":"fid-681222fb_17323acee17_-7907"},{"type":"Feature","geometry":{"type":"Point","coordinates":[116.395407,39.900021]},"properties":{"amenity":"bank"},"id":"fid-681222fb_17323acee17_-7906"},{"type":"Feature","geometry":{"type":"Point","coordinates":[116.417244,39.92921]},"properties":{"amenity":"bank"},"id":"fid-681222fb_17323acee17_-7905"},{"type":"Feature","geometry":{"type":"Point","coordinates":[116.417185,39.930045]},"properties":{"amenity":"bank"},"id":"fid-681222fb_17323acee17_-7904"},{"type":"Feature","geometry":{"type":"Point","coordinates":[116.417191,39.931005]},"properties":{"amenity":"bank"},"id":"fid-681222fb_17323acee17_-7903"},{"type":"Feature","geometry":{"type":"Point","coordinates":[116.417182,39.929967]},"properties":{"amenity":"bank"},"id":"fid-681222fb_17323acee17_-7902"},{"type":"Feature","geometry":{"type":"Point","coordinates":[116.406014,39.922876]},"properties":{"amenity":"bank"},"id":"fid-681222fb_17323acee17_-7901"},{"type":"Feature","geometry":{"type":"Point","coordinates":[116.406884,39.907829]},"properties":{"amenity":"bank"},"id":"fid-681222fb_17323acee17_-7900"},{"type":"Feature","geometry":{"type":"Point","coordinates":[116.410023,39.933252]},"properties":{"amenity":"atm"},"id":"fid-681222fb_17323acee17_-78ff"},{"type":"Feature","geometry":{"type":"Point","coordinates":[116.384221,39.901148]},"properties":{"amenity":"bank"},"id":"fid-681222fb_17323acee17_-78fe"},{"type":"Feature","geometry":{"type":"Point","coordinates":[116.39474,39.899712]},"properties":{"amenity":"bank"},"id":"fid-681222fb_17323acee17_-78fd"},{"type":"Feature","geometry":{"type":"Point","coordinates":[116.362939,39.904844]},"properties":{"amenity":"bank"},"id":"fid-681222fb_17323acee17_-78fc"},{"type":"Feature","geometry":{"type":"Point","coordinates":[116.357246,39.922401]},"properties":{"amenity":"atm"},"id":"fid-681222fb_17323acee17_-78fb"},{"type":"Feature","geometry":{"type":"Point","coordinates":[116.441306,39.909111]},"properties":{"amenity":"bank"},"id":"fid-681222fb_17323acee17_-78fa"},{"type":"Feature","geometry":{"type":"Point","coordinates":[116.434982,39.882803]},"properties":{"amenity":"bank"},"id":"fid-681222fb_17323acee17_-78f9"},{"type":"Feature","geometry":{"type":"Point","coordinates":[116.435663,39.884577]},"properties":{"amenity":"bank"},"id":"fid-681222fb_17323acee17_-78f8"},{"type":"Feature","geometry":{"type":"Point","coordinates":[116.440213,39.892247]},"properties":{"amenity":"bank"},"id":"fid-681222fb_17323acee17_-78f7"},{"type":"Feature","geometry":{"type":"Point","coordinates":[116.436185,39.884538]},"properties":{"amenity":"bank"},"id":"fid-681222fb_17323acee17_-78f6"},{"type":"Feature","geometry":{"type":"Point","coordinates":[116.438875,39.894018]},"properties":{"amenity":"bank"},"id":"fid-681222fb_17323acee17_-78f5"},{"type":"Feature","geometry":{"type":"Point","coordinates":[116.437477,39.884959]},"properties":{"amenity":"bank"},"id":"fid-681222fb_17323acee17_-78f4"},{"type":"Feature","geometry":{"type":"Point","coordinates":[116.436825,39.894097]},"properties":{"amenity":"bank"},"id":"fid-681222fb_17323acee17_-78f3"},{"type":"Feature","geometry":{"type":"Point","coordinates":[116.433763,39.894437]},"properties":{"amenity":"bank"},"id":"fid-681222fb_17323acee17_-78f2"},{"type":"Feature","geometry":{"type":"Point","coordinates":[116.358187,39.904536]},"properties":{"amenity":"bank"},"id":"fid-681222fb_17323acee17_-78f1"},{"type":"Feature","geometry":{"type":"Point","coordinates":[116.440523,39.887798]},"properties":{"amenity":"bank"},"id":"fid-681222fb_17323acee17_-78f0"},{"type":"Feature","geometry":{"type":"Point","coordinates":[116.43836,39.893967]},"properties":{"amenity":"bank"},"id":"fid-681222fb_17323acee17_-78ef"},{"type":"Feature","geometry":{"type":"Point","coordinates":[116.436311,39.894128]},"properties":{"amenity":"bank"},"id":"fid-681222fb_17323acee17_-78ee"},{"type":"Feature","geometry":{"type":"Point","coordinates":[116.433378,39.894182]},"properties":{"amenity":"bank"},"id":"fid-681222fb_17323acee17_-78ed"},{"type":"Feature","geometry":{"type":"Point","coordinates":[116.398661,39.919082]},"properties":{"amenity":"atm"},"id":"fid-681222fb_17323acee17_-78ec"},{"type":"Feature","geometry":{"type":"Point","coordinates":[116.399705,39.918566]},"properties":{"amenity":"atm"},"id":"fid-681222fb_17323acee17_-78eb"},{"type":"Feature","geometry":{"type":"Point","coordinates":[116.395969,39.895798]},"properties":{"amenity":"atm"},"id":"fid-681222fb_17323acee17_-78ea"},{"type":"Feature","geometry":{"type":"Point","coordinates":[116.430539,39.909893]},"properties":{"amenity":"bank"},"id":"fid-681222fb_17323acee17_-78e9"},{"type":"Feature","geometry":{"type":"Point","coordinates":[116.349804,39.944674]},"properties":{"amenity":"bank"},"id":"fid-681222fb_17323acee17_-78e8"},{"type":"Feature","geometry":{"type":"Point","coordinates":[116.410406,39.927406]},"properties":{"amenity":"atm"},"id":"fid-681222fb_17323acee17_-78e7"}]}