{"type":"FeatureCollection","crs":{"type":"name","properties":{"name":"EPSG:4326"}},"features":[{"type":"Feature","geometry":{"type":"Point","coordinates":[116.403367,39.937181]},"properties":{"amenity":"restaurant"},"id":"fid-681222fb_17323acee17_-78e5"},{"type":"Feature","geometry":{"type":"Point","coordinates":[116.381261,39.942857]},"properties":{"amenity":"restaurant"},"id":"fid-681222fb_17323acee17_-78e4"},{"type":"Feature","geometry":{"type":"Point","coordinates":[116.358759,39.878112]},"properties":{"amenity":"restaurant"},"id":"fid-681222fb_17323acee17_-78e3"},{"type":"Feature","geometry":{"type":"Point","coordinates":[116.379949,39.935155]},"properties":{"amenity":"restaurant"},"id":"fid-681222fb_17323acee17_-78e2"},{"type":"Feature","geometry":{"type":"Point","coordinates":[116.395163,39.913977]},"properties":{"amenity":"cafe"},"id":"fid-681222fb_17323acee17_-78e1"},{"type":"Feature","geometry":{"type":"Point","coordinates":[116.362286,39.888722]},"properties":{"amenity":"restaurant"},"id":"fid-681222fb_17323acee17_-78e0"},{"type":"Feature","geometry":{"type":"Point","coordinates":[116.440976,39.936276]},"properties":{"amenity":"restaurant"},"id":"fid-681222fb_17323acee17_-78df"},{"type":"Feature","geometry":{"type":"Point","coordinates":[116.435101,39.928138]},"properties":{"amenity":"restaurant"},"id":"fid-681222fb_17323acee17_-78de"},{"type":"Feature","geometry":{"type":"Point","coordinates":[116.435095,39.928078]},"properties":{"amenity":"restaurant"},"id":"fid-681222fb_17323acee17_-78dd"},{"type":"Feature","geometry":{"type":"Point","coordinates":[116.439908,39.921533]},"properties":{"amenity":"restaurant"},"id":"fid-681222fb_17323acee17_-78dc"},{"type":"Feature","geometry":{"type":"Point","coordinates":[116.439777,39.921586]},"properties":{"amenity":"restaurant"},"id":"fid-681222fb_17323acee17_-78db"},{"type":"Feature","geometry":{"type":"Point","coordinates":[116.438836,39.923609]},"properties":{"amenity":"restaurant"},"id":"fid-681222fb_17323acee17_-78da"},{"type":"Feature","geometry":{"type":"Point","coordinates":[116.435677,39.928186]},"properties":{"amenity":"cafe"},"id":"fid-681222fb_17323acee17_-78d9"},{"type":"Feature","geometry":{"type":"Point","coordinates":[116.356802,39.878022]},"properties":{"amenity":"restaurant"},"id":"fid-681222fb_17323acee17_-78d8"},{"type":"Feature","geometry":{"type":"Point","coordinates":[116.442144,39.936418]},"properties":{"amenity":"restaurant"},"id":"fid-681222fb_17323acee17_-78d7"},{"type":"Feature","geometry":{"type":"Point","coordinates":[116.44232,39.936424]},"properties":{"amenity":"restaurant"},"id":"fid-681222fb_17323acee17_-78d6"},{"type":"Feature","geometry":{"type":"Point","coordinates":[116.442327,39.936568]},"properties":{"amenity":"cafe"},"id":"fid-681222fb_17323acee17_-78d5"},{"type":"Feature","geometry":{"type":"Point","coordinates":[116.439315,39.938664]},"properties":{"amenity":"restaurant"},"id":"fid-681222fb_17323acee17_-78d4"},{"type":"Feature","geometry":{"type":"Point","coordinates":[116.440707,39.936129]},"properties":{"amenity":"restaurant"},"id":"fid-681222fb_17323acee17_-78d3"},{"type":"Feature","geometry":{"type":"Point","coordinates":[116.416849,39.945376]},"properties":{"amenity":"restaurant"},"id":"fid-681222fb_17323acee17_-78d2"},{"type":"Feature","geometry":{"type":"Point","coordinates":[116.426278,39.941284]},"properties":{"amenity":"bar"},"id":"fid-681222fb_17323acee17_-78d1"},{"type":"Feature","geometry":{"type":"Point","coordinates":[116.42608,39.941366]},"properties":{"amenity":"restaurant"},"id":"fid-681222fb_17323acee17_-78d0"},{"type":"Feature","geometry":{"type":"Point","coordinates":[116.439894,39.940798]},"properties":{"amenity":"restaurant"},"id":"fid-681222fb_17323acee17_-78cf"},{"type":"Feature","geometry":{"type":"Point","coordinates":[116.438079,39.933252]},"properties":{"amenity":"restaurant"},"id":"fid-681222fb_17323acee17_-78ce"},{"type":"Feature","geometry":{"type":"Point","coordinates":[116.35659,39.878011]},"properties":{"amenity":"restaurant"},"id":"fid-681222fb_17323acee17_-78cd"},{"type":"Feature","geometry":{"type":"Point","coordinates":[116.438842,39.933251]},"properties":{"amenity":"restaurant"},"id":"fid-681222fb_17323acee17_-78cc"},{"type":"Feature","geometry":{"type":"Point","coordinates":[116.404131,39.94015]},"properties":{"amenity":"cafe"},"id":"fid-681222fb_17323acee17_-78cb"},{"type":"Feature","geometry":{"type":"Point","coordinates":[116.417277,39.921884]},"properties":{"amenity":"restaurant"},"id":"fid-681222fb_17323acee17_-78ca"},{"type":"Feature","geometry":{"type":"Point","coordinates":[116.417115,39.921889]},"properties":{"amenity":"restaurant"},"id":"fid-681222fb_17323acee17_-78c9"},{"type":"Feature","geometry":{"type":"Point","coordinates":[116.417306,39.921939]},"properties":{"amenity":"restaurant"},"id":"fid-681222fb_17323acee17_-78c8"},{"type":"Feature","geometry":{"type":"Point","coordinates":[116.440139,39.92697]},"properties":{"amenity":"cafe"},"id":"fid-681222fb_17323acee17_-78c7"},{"type":"Feature","geometry":{"type":"Point","coordinates":[116.439182,39.930971]},"properties":{"amenity":"restaurant"},"id":"fid-681222fb_17323acee17_-78c6"},{"type":"Feature","geometry":{"type":"Point","coordinates":[116.439232,39.930977]},"properties":{"amenity":"restaurant"},"id":"fid-681222fb_17323acee17_-78c5"},{"type":"Feature","geometry":{"type":"Point","coordinates":[116.4393,39.931003]},"properties":{"amenity":"restaurant"},"id":"fid-681222fb_17323acee17_-78c4"},{"type":"Feature","geometry":{"type":"Point","coordinates":[116.439357,39.931019]},"properties":{"amenity":"restaurant"},"id":"fid-681222fb_17323acee17_-78c3"},{"type":"Feature","geometry":{"type":"Point","coordinates":[116.358932,39.881304]},"properties":{"amenity":"restaurant"},"id":"fid-681222fb_17323acee17_-78c2"},{"type":"Feature","geometry":{"type":"Point","coordinates":[116.439417,39.931023]},"properties":{"amenity":"restaurant"},"id":"fid-681222fb_17323acee17_-78c1"},{"type":"Feature","geometry":{"type":"Point","coordinates":[116.43676,39.932665]},"properties":{"amenity":"restaurant"},"id":"fid-681222fb_17323acee17_-78c0"},{"type":"Feature","geometry":{"type":"Point","coordinates":[116.431639,39.942507]},"properties":{"amenity":"restaurant"},"id":"fid-681222fb_17323acee17_-78bf"},{"type":"Feature","geometry":{"type":"Point","coordinates":[116.431494,39.942512]},"properties":{"amenity":"restaurant"},"id":"fid-681222fb_17323acee17_-78be"},{"type":"Feature","geometry":{"type":"Point","coordinates":[116.430926,39.942515]},"properties":{"amenity":"restaurant"},"id":"fid-681222fb_17323acee17_-78bd"},{"type":"Feature","geometry":{"type":"Point","coordinates":[116.440987,39.925388]},"properties":{"amenity":"restaurant"},"id":"fid-681222fb_17323acee17_-78bc"},{"type":"Feature","geometry":{"type":"Point","coordinates":[116.441832,39.925391]},"properties":{"amenity":"restaurant"},"id":"fid-681222fb_17323acee17_-78bb"},{"type":"Feature","geometry":{"type":"Point","coordinates":[116.441873,39.926707]},"properties":{"amenity":"restaurant"},"id":"fid-681222fb_17323acee17_-78ba"},{"type":"Feature","geometry":{"type":"Point","coordinates":[116.441279,39.913507]},"properties":{"amenity":"restaurant"},"id":"fid-681222fb_17323acee17_-78b9"},{"type":"Feature","geometry":{"type":"Point","coordinates":[116.439337,39.933994]},"properties":{"amenity":"restaurant"},"id":"fid-681222fb_17323acee17_-78b8"},{"type":"Feature","geometry":{"type":"Point","coordinates":[116.358531,39.878109]},"properties":{"amenity":"restaurant"},"id":"fid-681222fb_17323acee17_-78b7"},{"type":"Feature","geometry":{"type":"Point","coordinates":[116.418963,39.945476]},"properties":{"amenity":"restaurant"},"id":"fid-681222fb_17323acee17_-78b6"},{"type":"Feature","geometry":{"type":"Point","coordinates":[116.419676,39.945072]},"properties":{"amenity":"restaurant"},"id":"fid-681222fb_17323acee17_-78b5"},{"type":"Feature","geometry":{"type":"Point","coordinates":[116.437514,39.931102]},"properties":{"amenity":"restaurant"},"id":"fid-681222fb_17323acee17_-78b4"},{"type":"Feature","geometry":{"type":"Point","coordinates":[116.437358,39.931111]},"properties":{"amenity":"restaurant"},"id":"fid-681222fb_17323acee17_-78b3"},{"type":"Feature","geometry":{"type":"Point","coordinates":[116.437246,39.931111]},"properties":{"amenity":"restaurant"},"id":"fid-681222fb_17323acee17_-78b2"},{"type":"Feature","geometry":{"type":"Point","coordinates":[116.43715,39.931111]},"properties":{"amenity":"restaurant"},"id":"fid-681222fb_17323acee17_-78b1"},{"type":"Feature","geometry":{"type":"Point","coordinates":[116.436971,39.931097]},"properties":{"amenity":"restaurant"},"id":"fid-681222fb_17323acee17_-78b0"},{"type":"Feature","geometry":{"type":"Point","coordinates":[116.435103,39.927563]},"properties":{"amenity":"restaurant"},"id":"fid-681222fb_17323acee17_-78af"},{"type":"Feature","geometry":{"type":"Point","coordinates":[116.440414,39.92617]},"properties":{"amenity":"restaurant"},"id":"fid-681222fb_17323acee17_-78ae"},{"type":"Feature","geometry":{"type":"Point","coordinates":[116.440331,39.92601]},"properties":{"amenity":"cafe"},"id":"fid-681222fb_17323acee17_-78ad"},{"type":"Feature","geometry":{"type":"Point","coordinates":[116.363879,39.904035]},"properties":{"amenity":"restaurant"},"id":"fid-681222fb_17323acee17_-78ac"},{"type":"Feature","geometry":{"type":"Point","coordinates":[116.439163,39.929633]},"properties":{"amenity":"restaurant"},"id":"fid-681222fb_17323acee17_-78ab"},{"type":"Feature","geometry":{"type":"Point","coordinates":[116.440144,39.929942]},"properties":{"amenity":"restaurant"},"id":"fid-681222fb_17323acee17_-78aa"},{"type":"Feature","geometry":{"type":"Point","coordinates":[116.440139,39.93001]},"properties":{"amenity":"restaurant"},"id":"fid-681222fb_17323acee17_-78a9"},{"type":"Feature","geometry":{"type":"Point","coordinates":[116.401949,39.901627]},"properties":{"amenity":"restaurant"},"id":"fid-681222fb_17323acee17_-78a8"},{"type":"Feature","geometry":{"type":"Point","coordinates":[116.382434,39.877134]},"properties":{"amenity":"restaurant"},"id":"fid-681222fb_17323acee17_-78a7"},{"type":"Feature","geometry":{"type":"Point","coordinates":[116.410018,39.944084]},"properties":{"amenity":"bar"},"id":"fid-681222fb_17323acee17_-78a6"},{"type":"Feature","geometry":{"type":"Point","coordinates":[116.403244,39.935208]},"properties":{"amenity":"restaurant"},"id":"fid-681222fb_17323acee17_-78a5"},{"type":"Feature","geometry":{"type":"Point","coordinates":[116.41062,39.931979]},"properties":{"amenity":"bar"},"id":"fid-681222fb_17323acee17_-78a4"},{"type":"Feature","geometry":{"type":"Point","coordinates":[116.416757,39.946387]},"properties":{"amenity":"cafe"},"id":"fid-681222fb_17323acee17_-78a3"},{"type":"Feature","geometry":{"type":"Point","coordinates":[116.416923,39.941738]},"properties":{"amenity":"cafe"},"id":"fid-681222fb_17323acee17_-78a2"},{"type":"Feature","geometry":{"type":"Point","coordinates":[116.363858,39.90429]},"properties":{"amenity":"restaurant"},"id":"fid-681222fb_17323acee17_-78a1"},{"type":"Feature","geometry":{"type":"Point","coordinates":[116.417219,39.941754]},"properties":{"amenity":"cafe"},"id":"fid-681222fb_17323acee17_-78a0"},{"type":"Feature","geometry":{"type":"Point","coordinates":[116.397746,39.898193]},"properties":{"amenity":"cafe"},"id":"fid-681222fb_17323acee17_-789f"},{"type":"Feature","geometry":{"type":"Point","coordinates":[116.418966,39.941233]},"properties":{"amenity":"restaurant"},"id":"fid-681222fb_17323acee17_-789e"},{"type":"Feature","geometry":{"type":"Point","coordinates":[116.396462,39.933743]},"properties":{"amenity":"restaurant"},"id":"fid-681222fb_17323acee17_-789d"},{"type":"Feature","geometry":{"type":"Point","coordinates":[116.417474,39.929509]},"properties":{"amenity":"restaurant"},"id":"fid-681222fb_17323acee17_-789c"},{"type":"Feature","geometry":{"type":"Point","coordinates":[116.380607,39.93035]},"properties":{"amenity":"restaurant"},"id":"fid-681222fb_17323acee17_-789b"},{"type":"Feature","geometry":{"type":"Point","coordinates":[116.440014,39.933998]},"properties":{"amenity":"cafe"},"id":"fid-681222fb_17323acee17_-789a"},{"type":"Feature","geometry":{"type":"Point","coordinates":[116.417638,39.940056]},"properties":{"amenity":"restaurant"},"id":"fid-681222fb_17323acee17_-7899"},{"type":"Feature","geometry":{"type":"Point","coordinates":[116.421128,39.93905]},"properties":{"amenity":"bar"},"id":"fid-681222fb_17323acee17_-7898"},{"type":"Feature","geometry":{"type":"Point","coordinates":[116.399093,39.940724]},"properties":{"amenity":"bar"},"id":"fid-681222fb_17323acee17_-7897"},{"type":"Feature","geometry":{"type":"Point","coordinates":[116.35904,39.908089]},"properties":{"amenity":"restaurant"},"id":"fid-681222fb_17323acee17_-7896"},{"type":"Feature","geometry":{"type":"Point","coordinates":[116.40904,39.946932]},"properties":{"amenity":"bar"},"id":"fid-681222fb_17323acee17_-7895"},{"type":"Feature","geometry":{"type":"Point","coordinates":[116.399771,39.942738]},"properties":{"amenity":"restaurant"},"id":"fid-681222fb_17323acee17_-7894"},{"type":"Feature","geometry":{"type":"Point","coordinates":[116.42414,39.942673]},"properties":{"amenity":"restaurant"},"id":"fid-681222fb_17323acee17_-7893"},{"type":"Feature","geometry":{"type":"Point","coordinates":[116.426034,39.940819]},"properties":{"amenity":"restaurant"},"id":"fid-681222fb_17323acee17_-7892"},{"type":"Feature","geometry":{"type":"Point","coordinates":[116.379929,39.924575]},"properties":{"amenity":"restaurant"},"id":"fid-681222fb_17323acee17_-7891"},{"type":"Feature","geometry":{"type":"Point","coordinates":[116.394221,39.897371]},"properties":{"amenity":"cafe"},"id":"fid-681222fb_17323acee17_-7890"},{"type":"Feature","geometry":{"type":"Point","coordinates":[116.393727,39.940354]},"properties":{"amenity":"restaurant"},"id":"fid-681222fb_17323acee17_-788f"},{"type":"Feature","geometry":{"type":"Point","coordinates":[116.408576,39.946101]},"properties":{"amenity":"restaurant"},"id":"fid-681222fb_17323acee17_-788e"},{"type":"Feature","geometry":{"type":"Point","coordinates":[116.417435,39.927003]},"properties":{"amenity":"restaurant"},"id":"fid-681222fb_17323acee17_-788d"},{"type":"Feature","geometry":{"type":"Point","coordinates":[116.417432,39.921324]},"properties":{"amenity":"restaurant"},"id":"fid-681222fb_17323acee17_-788c"},{"type":"Feature","geometry":{"type":"Point","coordinates":[116.359042,39.908146]},"properties":{"amenity":"restaurant"},"id":"fid-681222fb_17323acee17_-788b"},{"type":"Feature","geometry":{"type":"Point","coordinates":[116.399486,39.930508]},"properties":{"amenity":"cafe"},"id":"fid-681222fb_17323acee17_-788a"},{"type":"Feature","geometry":{"type":"Point","coordinates":[116.393685,39.896026]},"properties":{"amenity":"restaurant"},"id":"fid-681222fb_17323acee17_-7889"},{"type":"Feature","geometry":{"type":"Point","coordinates":[116.403104,39.940827]},"properties":{"amenity":"restaurant"},"id":"fid-681222fb_17323acee17_-7888"},{"type":"Feature","geometry":{"type":"Point","coordinates":[116.39681,39.940856]},"properties":{"amenity":"restaurant"},"id":"fid-681222fb_17323acee17_-7887"},{"type":"Feature","geometry":{"type":"Point","coordinates":[116.408077,39.944107]},"properties":{"amenity":"restaurant"},"id":"fid-681222fb_17323acee17_-7886"},{"type":"Feature","geometry":{"type":"Point","coordinates":[116.441682,39.918184]},"properties":{"amenity":"cafe"},"id":"fid-681222fb_17323acee17_-7885"},{"type":"Feature","geometry":{"type":"Point","coordinates":[116.407364,39.915484]},"properties":{"amenity":"restaurant"},"id":"fid-681222fb_17323acee17_-7884"},{"type":"Feature","geometry":{"type":"Point","coordinates":[116.441741,39.917681]},"properties":{"amenity":"restaurant"},"id":"fid-681222fb_17323acee17_-7883"},{"type":"Feature","geometry":{"type":"Point","coordinates":[116.417287,39.930919]},"properties":{"amenity":"restaurant"},"id":"fid-681222fb_17323acee17_-7882"},{"type":"Feature","geometry":{"type":"Point","coordinates":[116.417371,39.930186]},"properties":{"amenity":"restaurant"},"id":"fid-681222fb_17323acee17_-7881"},{"type":"Feature","geometry":{"type":"Point","coordinates":[116.363975,39.886927]},"properties":{"amenity":"restaurant"},"id":"fid-681222fb_17323acee17_-7880"},{"type":"Feature","geometry":{"type":"Point","coordinates":[116.417318,39.92363]},"properties":{"amenity":"cafe"},"id":"fid-681222fb_17323acee17_-787f"},{"type":"Feature","geometry":{"type":"Point","coordinates":[116.419846,39.933006]},"properties":{"amenity":"restaurant"},"id":"fid-681222fb_17323acee17_-787e"},{"type":"Feature","geometry":{"type":"Point","coordinates":[116.417289,39.928047]},"properties":{"amenity":"restaurant"},"id":"fid-681222fb_17323acee17_-787d"},{"type":"Feature","geometry":{"type":"Point","coordinates":[116.39848,39.918324]},"properties":{"amenity":"restaurant"},"id":"fid-681222fb_17323acee17_-787c"},{"type":"Feature","geometry":{"type":"Point","coordinates":[116.417439,39.927439]},"properties":{"amenity":"cafe"},"id":"fid-681222fb_17323acee17_-787b"},{"type":"Feature","geometry":{"type":"Point","coordinates":[116.406141,39.897713]},"properties":{"amenity":"restaurant"},"id":"fid-681222fb_17323acee17_-787a"},{"type":"Feature","geometry":{"type":"Point","coordinates":[116.408793,39.938299]},"properties":{"amenity":"restaurant"},"id":"fid-681222fb_17323acee17_-7879"},{"type":"Feature","geometry":{"type":"Point","coordinates":[116.427867,39.905528]},"properties":{"amenity":"cafe"},"id":"fid-681222fb_17323acee17_-7878"},{"type":"Feature","geometry":{"type":"Point","coordinates":[116.427465,39.906893]},"properties":{"amenity":"cafe"},"id":"fid-681222fb_17323acee17_-7877"},{"type":"Feature","geometry":{"type":"Point","coordinates":[116.417038,39.939826]},"properties":{"amenity":"pub"},"id":"fid-681222fb_17323acee17_-7876"},{"type":"Feature","geometry":{"type":"Point","coordinates":[116.420909,39.940812]},"properties":{"amenity":"restaurant"},"id":"fid-681222fb_17323acee17_-7875"},{"type":"Feature","geometry":{"type":"Point","coordinates":[116.363298,39.885116]},"properties":{"amenity":"restaurant"},"id":"fid-681222fb_17323acee17_-7874"},{"type":"Feature","geometry":{"type":"Point","coordinates":[116.418185,39.897129]},"properties":{"amenity":"restaurant"},"id":"fid-681222fb_17323acee17_-7873"},{"type":"Feature","geometry":{"type":"Point","coordinates":[116.411879,39.916003]},"properties":{"amenity":"restaurant"},"id":"fid-681222fb_17323acee17_-7872"},{"type":"Feature","geometry":{"type":"Point","coordinates":[116.409522,39.944126]},"properties":{"amenity":"restaurant"},"id":"fid-681222fb_17323acee17_-7871"},{"type":"Feature","geometry":{"type":"Point","coordinates":[116.405861,39.940735]},"properties":{"amenity":"bar"},"id":"fid-681222fb_17323acee17_-7870"},{"type":"Feature","geometry":{"type":"Point","coordinates":[116.399685,39.938063]},"properties":{"amenity":"restaurant"},"id":"fid-681222fb_17323acee17_-786f"},{"type":"Feature","geometry":{"type":"Point","coordinates":[116.398982,39.93466]},"properties":{"amenity":"restaurant"},"id":"fid-681222fb_17323acee17_-786e"},{"type":"Feature","geometry":{"type":"Point","coordinates":[116.4033,39.928184]},"properties":{"amenity":"restaurant"},"id":"fid-681222fb_17323acee17_-786d"},{"type":"Feature","geometry":{"type":"Point","coordinates":[116.432523,39.918946]},"properties":{"amenity":"restaurant"},"id":"fid-681222fb_17323acee17_-786c"},{"type":"Feature","geometry":{"type":"Point","coordinates":[116.411665,39.927333]},"properties":{"amenity":"restaurant"},"id":"fid-681222fb_17323acee17_-786b"},{"type":"Feature","geometry":{"type":"Point","coordinates":[116.394566,39.899713]},"properties":{"amenity":"restaurant"},"id":"fid-681222fb_17323acee17_-786a"},{"type":"Feature","geometry":{"type":"Point","coordinates":[116.376197,39.935165]},"properties":{"amenity":"cafe"},"id":"fid-681222fb_17323acee17_-7869"},{"type":"Feature","geometry":{"type":"Point","coordinates":[116.38422,39.901378]},"properties":{"amenity":"restaurant"},"id":"fid-681222fb_17323acee17_-7868"},{"type":"Feature","geometry":{"type":"Point","coordinates":[116.366214,39.928499]},"properties":{"amenity":"restaurant"},"id":"fid-681222fb_17323acee17_-7867"},{"type":"Feature","geometry":{"type":"Point","coordinates":[116.391525,39.915422]},"properties":{"amenity":"restaurant"},"id":"fid-681222fb_17323acee17_-7866"},{"type":"Feature","geometry":{"type":"Point","coordinates":[116.422812,39.887099]},"properties":{"amenity":"restaurant"},"id":"fid-681222fb_17323acee17_-7865"},{"type":"Feature","geometry":{"type":"Point","coordinates":[116.380423,39.899702]},"properties":{"amenity":"restaurant"},"id":"fid-681222fb_17323acee17_-7864"},{"type":"Feature","geometry":{"type":"Point","coordinates":[116.365147,39.886479]},"properties":{"amenity":"restaurant"},"id":"fid-681222fb_17323acee17_-7863"},{"type":"Feature","geometry":{"type":"Point","coordinates":[116.44128,39.91005]},"properties":{"amenity":"cafe"},"id":"fid-681222fb_17323acee17_-7862"},{"type":"Feature","geometry":{"type":"Point","coordinates":[116.408508,39.937599]},"properties":{"amenity":"restaurant"},"id":"fid-681222fb_17323acee17_-7861"},{"type":"Feature","geometry":{"type":"Point","coordinates":[116.420226,39.91479]},"properties":{"amenity":"restaurant"},"id":"fid-681222fb_17323acee17_-7860"},{"type":"Feature","geometry":{"type":"Point","coordinates":[116.4214,39.915267]},"properties":{"amenity":"restaurant"},"id":"fid-681222fb_17323acee17_-785f"},{"type":"Feature","geometry":{"type":"Point","coordinates":[116.437201,39.941941]},"properties":{"amenity":"restaurant"},"id":"fid-681222fb_17323acee17_-785e"},{"type":"Feature","geometry":{"type":"Point","coordinates":[116.398357,39.896691]},"properties":{"amenity":"restaurant"},"id":"fid-681222fb_17323acee17_-785d"},{"type":"Feature","geometry":{"type":"Point","coordinates":[116.398284,39.896131]},"properties":{"amenity":"restaurant"},"id":"fid-681222fb_17323acee17_-785c"},{"type":"Feature","geometry":{"type":"Point","coordinates":[116.417504,39.915768]},"properties":{"amenity":"bar"},"id":"fid-681222fb_17323acee17_-785b"},{"type":"Feature","geometry":{"type":"Point","coordinates":[116.351376,39.900039]},"properties":{"amenity":"restaurant"},"id":"fid-681222fb_17323acee17_-785a"},{"type":"Feature","geometry":{"type":"Point","coordinates":[116.400593,39.89646]},"properties":{"amenity":"restaurant"},"id":"fid-681222fb_17323acee17_-7859"},{"type":"Feature","geometry":{"type":"Point","coordinates":[116.398514,39.898331]},"properties":{"amenity":"restaurant"},"id":"fid-681222fb_17323acee17_-7858"},{"type":"Feature","geometry":{"type":"Point","coordinates":[116.439009,39.923986]},"properties":{"amenity":"cafe"},"id":"fid-681222fb_17323acee17_-7857"},{"type":"Feature","geometry":{"type":"Point","coordinates":[116.428303,39.906419]},"properties":{"amenity":"restaurant"},"id":"fid-681222fb_17323acee17_-7856"},{"type":"Feature","geometry":{"type":"Point","coordinates":[116.374867,39.878783]},"properties":{"amenity":"cafe"},"id":"fid-681222fb_17323acee17_-7855"},{"type":"Feature","geometry":{"type":"Point","coordinates":[116.442336,39.918151]},"properties":{"amenity":"restaurant"},"id":"fid-681222fb_17323acee17_-7854"},{"type":"Feature","geometry":{"type":"Point","coordinates":[116.426066,39.925629]},"properties":{"amenity":"restaurant"},"id":"fid-681222fb_17323acee17_-7853"},{"type":"Feature","geometry":{"type":"Point","coordinates":[116.438492,39.924715]},"properties":{"amenity":"restaurant"},"id":"fid-681222fb_17323acee17_-7852"},{"type":"Feature","geometry":{"type":"Point","coordinates":[116.398397,39.936932]},"properties":{"amenity":"restaurant"},"id":"fid-681222fb_17323acee17_-7851"},{"type":"Feature","geometry":{"type":"Point","coordinates":[116.402914,39.914464]},"properties":{"amenity":"cafe"},"id":"fid-681222fb_17323acee17_-7850"},{"type":"Feature","geometry":{"type":"Point","coordinates":[116.435404,39.880379]},"properties":{"amenity":"restaurant"},"id":"fid-681222fb_17323acee17_-784f"},{"type":"Feature","geometry":{"type":"Point","coordinates":[116.435135,39.884009]},"properties":{"amenity":"restaurant"},"id":"fid-681222fb_17323acee17_-784e"},{"type":"Feature","geometry":{"type":"Point","coordinates":[116.435544,39.880268]},"properties":{"amenity":"restaurant"},"id":"fid-681222fb_17323acee17_-784d"},{"type":"Feature","geometry":{"type":"Point","coordinates":[116.439147,39.875841]},"properties":{"amenity":"restaurant"},"id":"fid-681222fb_17323acee17_-784c"},{"type":"Feature","geometry":{"type":"Point","coordinates":[116.436131,39.881177]},"properties":{"amenity":"restaurant"},"id":"fid-681222fb_17323acee17_-784b"},{"type":"Feature","geometry":{"type":"Point","coordinates":[116.435688,39.880139]},"properties":{"amenity":"restaurant"},"id":"fid-681222fb_17323acee17_-784a"},{"type":"Feature","geometry":{"type":"Point","coordinates":[116.437481,39.884614]},"properties":{"amenity":"restaurant"},"id":"fid-681222fb_17323acee17_-7849"},{"type":"Feature","geometry":{"type":"Point","coordinates":[116.433096,39.923716]},"properties":{"amenity":"cafe"},"id":"fid-681222fb_17323acee17_-7848"},{"type":"Feature","geometry":{"type":"Point","coordinates":[116.435237,39.894034]},"properties":{"amenity":"restaurant"},"id":"fid-681222fb_17323acee17_-7847"},{"type":"Feature","geometry":{"type":"Point","coordinates":[116.438476,39.893348]},"properties":{"amenity":"restaurant"},"id":"fid-681222fb_17323acee17_-7846"},{"type":"Feature","geometry":{"type":"Point","coordinates":[116.435792,39.894115]},"properties":{"amenity":"restaurant"},"id":"fid-681222fb_17323acee17_-7845"},{"type":"Feature","geometry":{"type":"Point","coordinates":[116.435048,39.894018]},"properties":{"amenity":"restaurant"},"id":"fid-681222fb_17323acee17_-7844"},{"type":"Feature","geometry":{"type":"Point","coordinates":[116.434874,39.893978]},"properties":{"amenity":"restaurant"},"id":"fid-681222fb_17323acee17_-7843"},{"type":"Feature","geometry":{"type":"Point","coordinates":[116.425499,39.940149]},"properties":{"amenity":"bar"},"id":"fid-681222fb_17323acee17_-7842"},{"type":"Feature","geometry":{"type":"Point","coordinates":[116.416784,39.942664]},"properties":{"amenity":"bar"},"id":"fid-681222fb_17323acee17_-7841"},{"type":"Feature","geometry":{"type":"Point","coordinates":[116.412106,39.932267]},"properties":{"amenity":"cafe"},"id":"fid-681222fb_17323acee17_-7840"},{"type":"Feature","geometry":{"type":"Point","coordinates":[116.40087,39.924236]},"properties":{"amenity":"restaurant"},"id":"fid-681222fb_17323acee17_-783f"},{"type":"Feature","geometry":{"type":"Point","coordinates":[116.400878,39.924306]},"properties":{"amenity":"restaurant"},"id":"fid-681222fb_17323acee17_-783e"},{"type":"Feature","geometry":{"type":"Point","coordinates":[116.363981,39.887908]},"properties":{"amenity":"restaurant"},"id":"fid-681222fb_17323acee17_-783d"},{"type":"Feature","geometry":{"type":"Point","coordinates":[116.412018,39.943429]},"properties":{"amenity":"bar"},"id":"fid-681222fb_17323acee17_-783c"},{"type":"Feature","geometry":{"type":"Point","coordinates":[116.411562,39.943349]},"properties":{"amenity":"bar"},"id":"fid-681222fb_17323acee17_-783b"},{"type":"Feature","geometry":{"type":"Point","coordinates":[116.420708,39.88715]},"properties":{"amenity":"cafe"},"id":"fid-681222fb_17323acee17_-783a"},{"type":"Feature","geometry":{"type":"Point","coordinates":[116.402558,39.946905]},"properties":{"amenity":"bar"},"id":"fid-681222fb_17323acee17_-7839"},{"type":"Feature","geometry":{"type":"Point","coordinates":[116.403182,39.940978]},"properties":{"amenity":"cafe"},"id":"fid-681222fb_17323acee17_-7838"},{"type":"Feature","geometry":{"type":"Point","coordinates":[116.394828,39.894772]},"properties":{"amenity":"pub"},"id":"fid-681222fb_17323acee17_-7837"},{"type":"Feature","geometry":{"type":"Point","coordinates":[116.403089,39.933273]},"properties":{"amenity":"restaurant"},"id":"fid-681222fb_17323acee17_-7836"},{"type":"Feature","geometry":{"type":"Point","coordinates":[116.418233,39.912862]},"properties":{"amenity":"restaurant"},"id":"fid-681222fb_17323acee17_-7835"},{"type":"Feature","geometry":{"type":"Point","coordinates":[116.411948,39.912248]},"properties":{"amenity":"restaurant"},"id":"fid-681222fb_17323acee17_-7834"},{"type":"Feature","geometry":{"type":"Point","coordinates":[116.406766,39.926792]},"properties":{"amenity":"restaurant"},"id":"fid-681222fb_17323acee17_-7833"},{"type":"Feature","geometry":{"type":"Point","coordinates":[116.431221,39.893265]},"properties":{"amenity":"restaurant"},"id":"fid-681222fb_17323acee17_-7832"},{"type":"Feature","geometry":{"type":"Point","coordinates":[116.411436,39.944058]},"properties":{"amenity":"bar"},"id":"fid-681222fb_17323acee17_-7831"},{"type":"Feature","geometry":{"type":"Point","coordinates":[116.408894,39.939188]},"properties":{"amenity":"restaurant"},"id":"fid-681222fb_17323acee17_-7830"},{"type":"Feature","geometry":{"type":"Point","coordinates":[116.405266,39.940997]},"properties":{"amenity":"bar"},"id":"fid-681222fb_17323acee17_-782f"},{"type":"Feature","geometry":{"type":"Point","coordinates":[116.411554,39.945534]},"properties":{"amenity":"cafe"},"id":"fid-681222fb_17323acee17_-782e"},{"type":"Feature","geometry":{"type":"Point","coordinates":[116.392257,39.894758]},"properties":{"amenity":"restaurant"},"id":"fid-681222fb_17323acee17_-782d"},{"type":"Feature","geometry":{"type":"Point","coordinates":[116.394052,39.942039]},"properties":{"amenity":"restaurant"},"id":"fid-681222fb_17323acee17_-782c"},{"type":"Feature","geometry":{"type":"Point","coordinates":[116.416862,39.915136]},"properties":{"amenity":"bar"},"id":"fid-681222fb_17323acee17_-782b"},{"type":"Feature","geometry":{"type":"Point","coordinates":[116.399099,39.896076]},"properties":{"amenity":"restaurant"},"id":"fid-681222fb_17323acee17_-782a"},{"type":"Feature","geometry":{"type":"Point","coordinates":[116.402898,39.923351]},"properties":{"amenity":"restaurant"},"id":"fid-681222fb_17323acee17_-7829"},{"type":"Feature","geometry":{"type":"Point","coordinates":[116.415018,39.896946]},"properties":{"amenity":"restaurant"},"id":"fid-681222fb_17323acee17_-7828"},{"type":"Feature","geometry":{"type":"Point","coordinates":[116.342156,39.946317]},"properties":{"amenity":"restaurant"},"id":"fid-681222fb_17323acee17_-7827"},{"type":"Feature","geometry":{"type":"Point","coordinates":[116.394017,39.933599]},"properties":{"amenity":"restaurant"},"id":"fid-681222fb_17323acee17_-7826"},{"type":"Feature","geometry":{"type":"Point","coordinates":[116.408881,39.918395]},"properties":{"amenity":"restaurant"},"id":"fid-681222fb_17323acee17_-7825"},{"type":"Feature","geometry":{"type":"Point","coordinates":[116.393881,39.939078]},"properties":{"amenity":"restaurant"},"id":"fid-681222fb_17323acee17_-7824"},{"type":"Feature","geometry":{"type":"Point","coordinates":[116.393825,39.937995]},"properties":{"amenity":"restaurant"},"id":"fid-681222fb_17323acee17_-7823"},{"type":"Feature","geometry":{"type":"Point","coordinates":[116.396489,39.895962]},"properties":{"amenity":"restaurant"},"id":"fid-681222fb_17323acee17_-7822"},{"type":"Feature","geometry":{"type":"Point","coordinates":[116.430773,39.932274]},"properties":{"amenity":"restaurant"},"id":"fid-681222fb_17323acee17_-7821"},{"type":"Feature","geometry":{"type":"Point","coordinates":[116.410905,39.916189]},"properties":{"amenity":"restaurant"},"id":"fid-681222fb_17323acee17_-7820"},{"type":"Feature","geometry":{"type":"Point","coordinates":[116.385,39.899332]},"properties":{"amenity":"restaurant"},"id":"fid-681222fb_17323acee17_-781f"},{"type":"Feature","geometry":{"type":"Point","coordinates":[116.371848,39.924091]},"properties":{"amenity":"cafe"},"id":"fid-681222fb_17323acee17_-781e"},{"type":"Feature","geometry":{"type":"Point","coordinates":[116.403982,39.936335]},"properties":{"amenity":"restaurant"},"id":"fid-681222fb_17323acee17_-781d"},{"type":"Feature","geometry":{"type":"Point","coordinates":[116.395509,39.899494]},"properties":{"amenity":"restaurant"},"id":"fid-681222fb_17323acee17_-781c"},{"type":"Feature","geometry":{"type":"Point","coordinates":[116.415164,39.897057]},"properties":{"amenity":"restaurant"},"id":"fid-681222fb_17323acee17_-781b"},{"type":"Feature","geometry":{"type":"Point","coordinates":[116.402837,39.94534]},"properties":{"amenity":"bar"},"id":"fid-681222fb_17323acee17_-781a"},{"type":"Feature","geometry":{"type":"Point","coordinates":[116.402906,39.945598]},"properties":{"amenity":"bar"},"id":"fid-681222fb_17323acee17_-7819"},{"type":"Feature","geometry":{"type":"Point","coordinates":[116.400086,39.944633]},"properties":{"amenity":"restaurant"},"id":"fid-681222fb_17323acee17_-7818"},{"type":"Feature","geometry":{"type":"Point","coordinates":[116.399574,39.944661]},"properties":{"amenity":"bar"},"id":"fid-681222fb_17323acee17_-7817"},{"type":"Feature","geometry":{"type":"Point","coordinates":[116.399709,39.944511]},"properties":{"amenity":"bar"},"id":"fid-681222fb_17323acee17_-7816"},{"type":"Feature","geometry":{"type":"Point","coordinates":[116.416809,39.936484]},"properties":{"amenity":"restaurant"},"id":"fid-681222fb_17323acee17_-7815"},{"type":"Feature","geometry":{"type":"Point","coordinates":[116.397439,39.897103]},"properties":{"amenity":"restaurant"},"id":"fid-681222fb_17323acee17_-7814"},{"type":"Feature","geometry":{"type":"Point","coordinates":[116.393897,39.943237]},"properties":{"amenity":"bar"},"id":"fid-681222fb_17323acee17_-7813"},{"type":"Feature","geometry":{"type":"Point","coordinates":[116.420812,39.885472]},"properties":{"amenity":"restaurant"},"id":"fid-681222fb_17323acee17_-7812"},{"type":"Feature","geometry":{"type":"Point","coordinates":[116.421057,39.946706]},"properties":{"amenity":"restaurant"},"id":"fid-681222fb_17323acee17_-7811"},{"type":"Feature","geometry":{"type":"Point","coordinates":[116.421059,39.915505]},"properties":{"amenity":"cafe"},"id":"fid-681222fb_17323acee17_-7810"},{"type":"Feature","geometry":{"type":"Point","coordinates":[116.391803,39.933962]},"properties":{"amenity":"cafe"},"id":"fid-681222fb_17323acee17_-780f"},{"type":"Feature","geometry":{"type":"Point","coordinates":[116.399431,39.937491]},"properties":{"amenity":"pub"},"id":"fid-681222fb_17323acee17_-780e"},{"type":"Feature","geometry":{"type":"Point","coordinates":[116.420497,39.916476]},"properties":{"amenity":"restaurant"},"id":"fid-681222fb_17323acee17_-780d"},{"type":"Feature","geometry":{"type":"Point","coordinates":[116.420021,39.917066]},"properties":{"amenity":"restaurant"},"id":"fid-681222fb_17323acee17_-780c"},{"type":"Feature","geometry":{"type":"Point","coordinates":[116.420384,39.916626]},"properties":{"amenity":"restaurant"},"id":"fid-681222fb_17323acee17_-780b"},{"type":"Feature","geometry":{"type":"Point","coordinates":[116.420251,39.886494]},"properties":{"amenity":"cafe"},"id":"fid-681222fb_17323acee17_-780a"},{"type":"Feature","geometry":{"type":"Point","coordinates":[116.411715,39.945528]},"properties":{"amenity":"cafe"},"id":"fid-681222fb_17323acee17_-7809"},{"type":"Feature","geometry":{"type":"Point","coordinates":[116.416751,39.943277]},"properties":{"amenity":"restaurant"},"id":"fid-681222fb_17323acee17_-7808"},{"type":"Feature","geometry":{"type":"Point","coordinates":[116.403217,39.9369]},"properties":{"amenity":"bar"},"id":"fid-681222fb_17323acee17_-7807"},{"type":"Feature","geometry":{"type":"Point","coordinates":[116.437053,39.933221]},"properties":{"amenity":"cafe"},"id":"fid-681222fb_17323acee17_-7806"},{"type":"Feature","geometry":{"type":"Point","coordinates":[116.373483,39.910584]},"properties":{"amenity":"restaurant"},"id":"fid-681222fb_17323acee17_-7805"},{"type":"Feature","geometry":{"type":"Point","coordinates":[116.400217,39.940963]},"properties":{"amenity":"cafe"},"id":"fid-681222fb_17323acee17_-7804"},{"type":"Feature","geometry":{"type":"Point","coordinates":[116.402339,39.941024]},"properties":{"amenity":"cafe"},"id":"fid-681222fb_17323acee17_-7803"},{"type":"Feature","geometry":{"type":"Point","coordinates":[116.418382,39.943301]},"properties":{"amenity":"restaurant"},"id":"fid-681222fb_17323acee17_-7802"},{"type":"Feature","geometry":{"type":"Point","coordinates":[116.420147,39.943376]},"properties":{"amenity":"restaurant"},"id":"fid-681222fb_17323acee17_-7801"},{"type":"Feature","geometry":{"type":"Point","coordinates":[116.417252,39.936319]},"properties":{"amenity":"restaurant"},"id":"fid-681222fb_17323acee17_-7800"},{"type":"Feature","geometry":{"type":"Point","coordinates":[116.342932,39.940071]},"properties":{"amenity":"restaurant"},"id":"fid-681222fb_17323acee17_-77ff"},{"type":"Feature","geometry":{"type":"Point","coordinates":[116.403915,39.914952]},"properties":{"amenity":"restaurant"},"id":"fid-681222fb_17323acee17_-77fe"},{"type":"Feature","geometry":{"type":"Point","coordinates":[116.441818,39.934059]},"properties":{"amenity":"restaurant"},"id":"fid-681222fb_17323acee17_-77fd"},{"type":"Feature","geometry":{"type":"Point","coordinates":[116.391372,39.934733]},"properties":{"amenity":"restaurant"},"id":"fid-681222fb_17323acee17_-77fc"},{"type":"Feature","geometry":{"type":"Point","coordinates":[116.390806,39.935811]},"properties":{"amenity":"restaurant"},"id":"fid-681222fb_17323acee17_-77fb"},{"type":"Feature","geometry":{"type":"Point","coordinates":[116.400815,39.946032]},"properties":{"amenity":"bar"},"id":"fid-681222fb_17323acee17_-77fa"},{"type":"Feature","geometry":{"type":"Point","coordinates":[116.427629,39.942625]},"properties":{"amenity":"restaurant"},"id":"fid-681222fb_17323acee17_-77f9"},{"type":"Feature","geometry":{"type":"Point","coordinates":[116.420407,39.932234]},"properties":{"amenity":"bar"},"id":"fid-681222fb_17323acee17_-77f8"},{"type":"Feature","geometry":{"type":"Point","coordinates":[116.41217,39.915006]},"properties":{"amenity":"restaurant"},"id":"fid-681222fb_17323acee17_-77f7"},{"type":"Feature","geometry":{"type":"Point","coordinates":[116.37257,39.918692]},"properties":{"amenity":"restaurant"},"id":"fid-681222fb_17323acee17_-77f6"},{"type":"Feature","geometry":{"type":"Point","coordinates":[116.374793,39.918731]},"properties":{"amenity":"restaurant"},"id":"fid-681222fb_17323acee17_-77f5"},{"type":"Feature","geometry":{"type":"Point","coordinates":[116.372368,39.918676]},"properties":{"amenity":"restaurant"},"id":"fid-681222fb_17323acee17_-77f4"},{"type":"Feature","geometry":{"type":"Point","coordinates":[116.373424,39.920982]},"properties":{"amenity":"restaurant"},"id":"fid-681222fb_17323acee17_-77f3"},{"type":"Feature","geometry":{"type":"Point","coordinates":[116.373336,39.913953]},"properties":{"amenity":"restaurant"},"id":"fid-681222fb_17323acee17_-77f2"},{"type":"Feature","geometry":{"type":"Point","coordinates":[116.374218,39.918698]},"properties":{"amenity":"restaurant"},"id":"fid-681222fb_17323acee17_-77f1"},{"type":"Feature","geometry":{"type":"Point","coordinates":[116.37373,39.922369]},"properties":{"amenity":"restaurant"},"id":"fid-681222fb_17323acee17_-77f0"},{"type":"Feature","geometry":{"type":"Point","coordinates":[116.385907,39.899689]},"properties":{"amenity":"restaurant"},"id":"fid-681222fb_17323acee17_-77ef"},{"type":"Feature","geometry":{"type":"Point","coordinates":[116.375087,39.916188]},"properties":{"amenity":"restaurant"},"id":"fid-681222fb_17323acee17_-77ee"},{"type":"Feature","geometry":{"type":"Point","coordinates":[116.39228,39.940032]},"properties":{"amenity":"restaurant"},"id":"fid-681222fb_17323acee17_-77ed"},{"type":"Feature","geometry":{"type":"Point","coordinates":[116.373085,39.925915]},"properties":{"amenity":"restaurant"},"id":"fid-681222fb_17323acee17_-77ec"},{"type":"Feature","geometry":{"type":"Point","coordinates":[116.366957,39.886658]},"properties":{"amenity":"restaurant"},"id":"fid-681222fb_17323acee17_-77eb"},{"type":"Feature","geometry":{"type":"Point","coordinates":[116.402291,39.945364]},"properties":{"amenity":"restaurant"},"id":"fid-681222fb_17323acee17_-77ea"},{"type":"Feature","geometry":{"type":"Point","coordinates":[116.412469,39.878328]},"properties":{"amenity":"cafe"},"id":"fid-681222fb_17323acee17_-77e9"},{"type":"Feature","geometry":{"type":"Point","coordinates":[116.406019,39.927597]},"properties":{"amenity":"restaurant"},"id":"fid-681222fb_17323acee17_-77e8"},{"type":"Feature","geometry":{"type":"Point","coordinates":[116.417522,39.930062]},"properties":{"amenity":"restaurant"},"id":"fid-681222fb_17323acee17_-77e7"},{"type":"Feature","geometry":{"type":"Point","coordinates":[116.429285,39.934008]},"properties":{"amenity":"restaurant"},"id":"fid-681222fb_17323acee17_-77e6"},{"type":"Feature","geometry":{"type":"Point","coordinates":[116.381854,39.945681]},"properties":{"amenity":"restaurant"},"id":"fid-681222fb_17323acee17_-77e5"},{"type":"Feature","geometry":{"type":"Point","coordinates":[116.38793,39.899677]},"properties":{"amenity":"restaurant"},"id":"fid-681222fb_17323acee17_-77e4"},{"type":"Feature","geometry":{"type":"Point","coordinates":[116.393865,39.940879]},"properties":{"amenity":"restaurant"},"id":"fid-681222fb_17323acee17_-77e3"},{"type":"Feature","geometry":{"type":"Point","coordinates":[116.373216,39.925989]},"properties":{"amenity":"restaurant"},"id":"fid-681222fb_17323acee17_-77e2"},{"type":"Feature","geometry":{"type":"Point","coordinates":[116.404283,39.94071]},"properties":{"amenity":"restaurant"},"id":"fid-681222fb_17323acee17_-77e1"},{"type":"Feature","geometry":{"type":"Point","coordinates":[116.431723,39.911746]},"properties":{"amenity":"restaurant"},"id":"fid-681222fb_17323acee17_-77e0"},{"type":"Feature","geometry":{"type":"Point","coordinates":[116.406169,39.934821]},"properties":{"amenity":"bar"},"id":"fid-681222fb_17323acee17_-77df"},{"type":"Feature","geometry":{"type":"Point","coordinates":[116.396512,39.942311]},"properties":{"amenity":"bar"},"id":"fid-681222fb_17323acee17_-77de"},{"type":"Feature","geometry":{"type":"Point","coordinates":[116.403093,39.941939]},"properties":{"amenity":"cafe"},"id":"fid-681222fb_17323acee17_-77dd"},{"type":"Feature","geometry":{"type":"Point","coordinates":[116.411495,39.943427]},"properties":{"amenity":"bar"},"id":"fid-681222fb_17323acee17_-77dc"},{"type":"Feature","geometry":{"type":"Point","coordinates":[116.421883,39.94123]},"properties":{"amenity":"restaurant"},"id":"fid-681222fb_17323acee17_-77db"},{"type":"Feature","geometry":{"type":"Point","coordinates":[116.403623,39.926591]},"properties":{"amenity":"bar"},"id":"fid-681222fb_17323acee17_-77da"},{"type":"Feature","geometry":{"type":"Point","coordinates":[116.395623,39.941864]},"properties":{"amenity":"pub"},"id":"fid-681222fb_17323acee17_-77d9"},{"type":"Feature","geometry":{"type":"Point","coordinates":[116.391137,39.93933]},"properties":{"amenity":"bar"},"id":"fid-681222fb_17323acee17_-77d8"},{"type":"Feature","geometry":{"type":"Point","coordinates":[116.41493,39.922977]},"properties":{"amenity":"restaurant"},"id":"fid-681222fb_17323acee17_-77d7"},{"type":"Feature","geometry":{"type":"Point","coordinates":[116.410892,39.916538]},"properties":{"amenity":"restaurant"},"id":"fid-681222fb_17323acee17_-77d6"},{"type":"Feature","geometry":{"type":"Point","coordinates":[116.40851,39.944319]},"properties":{"amenity":"restaurant"},"id":"fid-681222fb_17323acee17_-77d5"},{"type":"Feature","geometry":{"type":"Point","coordinates":[116.404679,39.888258]},"properties":{"amenity":"restaurant"},"id":"fid-681222fb_17323acee17_-77d4"},{"type":"Feature","geometry":{"type":"Point","coordinates":[116.398183,39.892459]},"properties":{"amenity":"restaurant"},"id":"fid-681222fb_17323acee17_-77d3"},{"type":"Feature","geometry":{"type":"Point","coordinates":[116.373552,39.934975]},"properties":{"amenity":"restaurant"},"id":"fid-681222fb_17323acee17_-77d2"},{"type":"Feature","geometry":{"type":"Point","coordinates":[116.373102,39.930231]},"properties":{"amenity":"restaurant"},"id":"fid-681222fb_17323acee17_-77d1"},{"type":"Feature","geometry":{"type":"Point","coordinates":[116.388827,39.931899]},"properties":{"amenity":"restaurant"},"id":"fid-681222fb_17323acee17_-77d0"},{"type":"Feature","geometry":{"type":"Point","coordinates":[116.392063,39.931301]},"properties":{"amenity":"restaurant"},"id":"fid-681222fb_17323acee17_-77cf"},{"type":"Feature","geometry":{"type":"Point","coordinates":[116.441972,39.936565]},"properties":{"amenity":"restaurant"},"id":"fid-681222fb_17323acee17_-77ce"},{"type":"Feature","geometry":{"type":"Point","coordinates":[116.374484,39.935013]},"properties":{"amenity":"restaurant"},"id":"fid-681222fb_17323acee17_-77cd"},{"type":"Feature","geometry":{"type":"Point","coordinates":[116.392719,39.939029]},"properties":{"amenity":"bar"},"id":"fid-681222fb_17323acee17_-77cc"},{"type":"Feature","geometry":{"type":"Point","coordinates":[116.391508,39.939248]},"properties":{"amenity":"bar"},"id":"fid-681222fb_17323acee17_-77cb"},{"type":"Feature","geometry":{"type":"Point","coordinates":[116.391279,39.939154]},"properties":{"amenity":"bar"},"id":"fid-681222fb_17323acee17_-77ca"},{"type":"Feature","geometry":{"type":"Point","coordinates":[116.390958,39.939185]},"properties":{"amenity":"restaurant"},"id":"fid-681222fb_17323acee17_-77c9"},{"type":"Feature","geometry":{"type":"Point","coordinates":[116.390861,39.939342]},"properties":{"amenity":"bar"},"id":"fid-681222fb_17323acee17_-77c8"},{"type":"Feature","geometry":{"type":"Point","coordinates":[116.385779,39.940061]},"properties":{"amenity":"restaurant"},"id":"fid-681222fb_17323acee17_-77c7"},{"type":"Feature","geometry":{"type":"Point","coordinates":[116.394433,39.944528]},"properties":{"amenity":"restaurant"},"id":"fid-681222fb_17323acee17_-77c6"},{"type":"Feature","geometry":{"type":"Point","coordinates":[116.39934,39.926158]},"properties":{"amenity":"restaurant"},"id":"fid-681222fb_17323acee17_-77c5"},{"type":"Feature","geometry":{"type":"Point","coordinates":[116.417038,39.9398]},"properties":{"amenity":"cafe"},"id":"fid-681222fb_17323acee17_-77c4"},{"type":"Feature","geometry":{"type":"Point","coordinates":[116.375151,39.898853]},"properties":{"amenity":"restaurant"},"id":"fid-681222fb_17323acee17_-77c3"},{"type":"Feature","geometry":{"type":"Point","coordinates":[116.394315,39.940921]},"properties":{"amenity":"cafe"},"id":"fid-681222fb_17323acee17_-77c2"},{"type":"Feature","geometry":{"type":"Point","coordinates":[116.402543,39.943963]},"properties":{"amenity":"bar"},"id":"fid-681222fb_17323acee17_-77c1"},{"type":"Feature","geometry":{"type":"Point","coordinates":[116.407868,39.935711]},"properties":{"amenity":"bar"},"id":"fid-681222fb_17323acee17_-77c0"},{"type":"Feature","geometry":{"type":"Point","coordinates":[116.394449,39.944558]},"properties":{"amenity":"restaurant"},"id":"fid-681222fb_17323acee17_-77bf"},{"type":"Feature","geometry":{"type":"Point","coordinates":[116.402999,39.943787]},"properties":{"amenity":"cafe"},"id":"fid-681222fb_17323acee17_-77be"},{"type":"Feature","geometry":{"type":"Point","coordinates":[116.402931,39.945325]},"properties":{"amenity":"bar"},"id":"fid-681222fb_17323acee17_-77bd"},{"type":"Feature","geometry":{"type":"Point","coordinates":[116.412018,39.934246]},"properties":{"amenity":"restaurant"},"id":"fid-681222fb_17323acee17_-77bc"},{"type":"Feature","geometry":{"type":"Point","coordinates":[116.398221,39.943937]},"properties":{"amenity":"bar"},"id":"fid-681222fb_17323acee17_-77bb"},{"type":"Feature","geometry":{"type":"Point","coordinates":[116.410593,39.925665]},"properties":{"amenity":"bar"},"id":"fid-681222fb_17323acee17_-77ba"},{"type":"Feature","geometry":{"type":"Point","coordinates":[116.406702,39.941182]},"properties":{"amenity":"restaurant"},"id":"fid-681222fb_17323acee17_-77b9"},{"type":"Feature","geometry":{"type":"Point","coordinates":[116.375556,39.899222]},"properties":{"amenity":"restaurant"},"id":"fid-681222fb_17323acee17_-77b8"},{"type":"Feature","geometry":{"type":"Point","coordinates":[116.399137,39.940725]},"properties":{"amenity":"bar"},"id":"fid-681222fb_17323acee17_-77b7"},{"type":"Feature","geometry":{"type":"Point","coordinates":[116.41677,39.943046]},"properties":{"amenity":"bar"},"id":"fid-681222fb_17323acee17_-77b6"},{"type":"Feature","geometry":{"type":"Point","coordinates":[116.405638,39.940988]},"properties":{"amenity":"bar"},"id":"fid-681222fb_17323acee17_-77b5"},{"type":"Feature","geometry":{"type":"Point","coordinates":[116.403167,39.938399]},"properties":{"amenity":"bar"},"id":"fid-681222fb_17323acee17_-77b4"},{"type":"Feature","geometry":{"type":"Point","coordinates":[116.405557,39.94099]},"properties":{"amenity":"cafe"},"id":"fid-681222fb_17323acee17_-77b3"},{"type":"Feature","geometry":{"type":"Point","coordinates":[116.404616,39.940715]},"properties":{"amenity":"bar"},"id":"fid-681222fb_17323acee17_-77b2"},{"type":"Feature","geometry":{"type":"Point","coordinates":[116.382637,39.942732]},"properties":{"amenity":"bar"},"id":"fid-681222fb_17323acee17_-77b1"},{"type":"Feature","geometry":{"type":"Point","coordinates":[116.426387,39.918331]},"properties":{"amenity":"cafe"},"id":"fid-681222fb_17323acee17_-77b0"},{"type":"Feature","geometry":{"type":"Point","coordinates":[116.411863,39.916752]},"properties":{"amenity":"cafe"},"id":"fid-681222fb_17323acee17_-77af"},{"type":"Feature","geometry":{"type":"Point","coordinates":[116.414441,39.921863]},"properties":{"amenity":"restaurant"},"id":"fid-681222fb_17323acee17_-77ae"},{"type":"Feature","geometry":{"type":"Point","coordinates":[116.41689,39.942928]},"properties":{"amenity":"restaurant"},"id":"fid-681222fb_17323acee17_-77ad"},{"type":"Feature","geometry":{"type":"Point","coordinates":[116.430481,39.94135]},"properties":{"amenity":"restaurant"},"id":"fid-681222fb_17323acee17_-77ac"},{"type":"Feature","geometry":{"type":"Point","coordinates":[116.394079,39.89615]},"properties":{"amenity":"restaurant"},"id":"fid-681222fb_17323acee17_-77ab"},{"type":"Feature","geometry":{"type":"Point","coordinates":[116.40309,39.93763]},"properties":{"amenity":"restaurant"},"id":"fid-681222fb_17323acee17_-77aa"},{"type":"Feature","geometry":{"type":"Point","coordinates":[116.391128,39.895265]},"properties":{"amenity":"restaurant"},"id":"fid-681222fb_17323acee17_-77a9"},{"type":"Feature","geometry":{"type":"Point","coordinates":[116.437227,39.91308]},"properties":{"amenity":"pub"},"id":"fid-681222fb_17323acee17_-77a8"},{"type":"Feature","geometry":{"type":"Point","coordinates":[116.394104,39.89624]},"properties":{"amenity":"restaurant"},"id":"fid-681222fb_17323acee17_-77a7"},{"type":"Feature","geometry":{"type":"Point","coordinates":[116.390638,39.89527]},"properties":{"amenity":"restaurant"},"id":"fid-681222fb_17323acee17_-77a6"},{"type":"Feature","geometry":{"type":"Point","coordinates":[116.393153,39.895961]},"properties":{"amenity":"cafe"},"id":"fid-681222fb_17323acee17_-77a5"},{"type":"Feature","geometry":{"type":"Point","coordinates":[116.392457,39.895622]},"properties":{"amenity":"cafe"},"id":"fid-681222fb_17323acee17_-77a4"},{"type":"Feature","geometry":{"type":"Point","coordinates":[116.412397,39.941525]},"properties":{"amenity":"bar"},"id":"fid-681222fb_17323acee17_-77a3"},{"type":"Feature","geometry":{"type":"Point","coordinates":[116.43921,39.936518]},"properties":{"amenity":"restaurant"},"id":"fid-681222fb_17323acee17_-77a2"},{"type":"Feature","geometry":{"type":"Point","coordinates":[116.397403,39.940867]},"properties":{"amenity":"cafe"},"id":"fid-681222fb_17323acee17_-77a1"},{"type":"Feature","geometry":{"type":"Point","coordinates":[116.376072,39.942576]},"properties":{"amenity":"restaurant"},"id":"fid-681222fb_17323acee17_-77a0"},{"type":"Feature","geometry":{"type":"Point","coordinates":[116.372787,39.947312]},"properties":{"amenity":"restaurant"},"id":"fid-681222fb_17323acee17_-779f"},{"type":"Feature","geometry":{"type":"Point","coordinates":[116.373169,39.947405]},"properties":{"amenity":"restaurant"},"id":"fid-681222fb_17323acee17_-779e"},{"type":"Feature","geometry":{"type":"Point","coordinates":[116.374081,39.947021]},"properties":{"amenity":"restaurant"},"id":"fid-681222fb_17323acee17_-779d"},{"type":"Feature","geometry":{"type":"Point","coordinates":[116.372634,39.946986]},"properties":{"amenity":"restaurant"},"id":"fid-681222fb_17323acee17_-779c"},{"type":"Feature","geometry":{"type":"Point","coordinates":[116.372655,39.946507]},"properties":{"amenity":"restaurant"},"id":"fid-681222fb_17323acee17_-779b"},{"type":"Feature","geometry":{"type":"Point","coordinates":[116.373295,39.946464]},"properties":{"amenity":"restaurant"},"id":"fid-681222fb_17323acee17_-779a"},{"type":"Feature","geometry":{"type":"Point","coordinates":[116.372684,39.946194]},"properties":{"amenity":"restaurant"},"id":"fid-681222fb_17323acee17_-7799"},{"type":"Feature","geometry":{"type":"Point","coordinates":[116.373107,39.945899]},"properties":{"amenity":"restaurant"},"id":"fid-681222fb_17323acee17_-7798"},{"type":"Feature","geometry":{"type":"Point","coordinates":[116.428474,39.893076]},"properties":{"amenity":"restaurant"},"id":"fid-681222fb_17323acee17_-7797"},{"type":"Feature","geometry":{"type":"Point","coordinates":[116.430861,39.934194]},"properties":{"amenity":"restaurant"},"id":"fid-681222fb_17323acee17_-7796"},{"type":"Feature","geometry":{"type":"Point","coordinates":[116.375066,39.946107]},"properties":{"amenity":"restaurant"},"id":"fid-681222fb_17323acee17_-7795"},{"type":"Feature","geometry":{"type":"Point","coordinates":[116.37274,39.945093]},"properties":{"amenity":"restaurant"},"id":"fid-681222fb_17323acee17_-7794"},{"type":"Feature","geometry":{"type":"Point","coordinates":[116.372716,39.944661]},"properties":{"amenity":"restaurant"},"id":"fid-681222fb_17323acee17_-7793"},{"type":"Feature","geometry":{"type":"Point","coordinates":[116.372707,39.944453]},"properties":{"amenity":"restaurant"},"id":"fid-681222fb_17323acee17_-7792"},{"type":"Feature","geometry":{"type":"Point","coordinates":[116.372655,39.944283]},"properties":{"amenity":"restaurant"},"id":"fid-681222fb_17323acee17_-7791"},{"type":"Feature","geometry":{"type":"Point","coordinates":[116.372594,39.944085]},"properties":{"amenity":"restaurant"},"id":"fid-681222fb_17323acee17_-7790"},{"type":"Feature","geometry":{"type":"Point","coordinates":[116.372693,39.943952]},"properties":{"amenity":"restaurant"},"id":"fid-681222fb_17323acee17_-778f"},{"type":"Feature","geometry":{"type":"Point","coordinates":[116.372843,39.943186]},"properties":{"amenity":"restaurant"},"id":"fid-681222fb_17323acee17_-778e"},{"type":"Feature","geometry":{"type":"Point","coordinates":[116.372805,39.942729]},"properties":{"amenity":"restaurant"},"id":"fid-681222fb_17323acee17_-778d"},{"type":"Feature","geometry":{"type":"Point","coordinates":[116.372989,39.941683]},"properties":{"amenity":"restaurant"},"id":"fid-681222fb_17323acee17_-778c"},{"type":"Feature","geometry":{"type":"Point","coordinates":[116.439547,39.921724]},"properties":{"amenity":"restaurant"},"id":"fid-681222fb_17323acee17_-778b"},{"type":"Feature","geometry":{"type":"Point","coordinates":[116.373407,39.94182]},"properties":{"amenity":"restaurant"},"id":"fid-681222fb_17323acee17_-778a"},{"type":"Feature","geometry":{"type":"Point","coordinates":[116.373914,39.942037]},"properties":{"amenity":"restaurant"},"id":"fid-681222fb_17323acee17_-7789"},{"type":"Feature","geometry":{"type":"Point","coordinates":[116.375122,39.942538]},"properties":{"amenity":"restaurant"},"id":"fid-681222fb_17323acee17_-7788"},{"type":"Feature","geometry":{"type":"Point","coordinates":[116.379074,39.94297]},"properties":{"amenity":"restaurant"},"id":"fid-681222fb_17323acee17_-7787"},{"type":"Feature","geometry":{"type":"Point","coordinates":[116.379074,39.943326]},"properties":{"amenity":"restaurant"},"id":"fid-681222fb_17323acee17_-7786"},{"type":"Feature","geometry":{"type":"Point","coordinates":[116.379215,39.94383]},"properties":{"amenity":"restaurant"},"id":"fid-681222fb_17323acee17_-7785"},{"type":"Feature","geometry":{"type":"Point","coordinates":[116.379234,39.944538]},"properties":{"amenity":"restaurant"},"id":"fid-681222fb_17323acee17_-7784"},{"type":"Feature","geometry":{"type":"Point","coordinates":[116.379893,39.945366]},"properties":{"amenity":"restaurant"},"id":"fid-681222fb_17323acee17_-7783"},{"type":"Feature","geometry":{"type":"Point","coordinates":[116.380069,39.945764]},"properties":{"amenity":"restaurant"},"id":"fid-681222fb_17323acee17_-7782"},{"type":"Feature","geometry":{"type":"Point","coordinates":[116.380517,39.944533]},"properties":{"amenity":"restaurant"},"id":"fid-681222fb_17323acee17_-7781"},{"type":"Feature","geometry":{"type":"Point","coordinates":[116.39271,39.912173]},"properties":{"amenity":"bar"},"id":"fid-681222fb_17323acee17_-7780"},{"type":"Feature","geometry":{"type":"Point","coordinates":[116.380587,39.944842]},"properties":{"amenity":"restaurant"},"id":"fid-681222fb_17323acee17_-777f"},{"type":"Feature","geometry":{"type":"Point","coordinates":[116.382037,39.946055]},"properties":{"amenity":"restaurant"},"id":"fid-681222fb_17323acee17_-777e"},{"type":"Feature","geometry":{"type":"Point","coordinates":[116.382371,39.946923]},"properties":{"amenity":"restaurant"},"id":"fid-681222fb_17323acee17_-777d"},{"type":"Feature","geometry":{"type":"Point","coordinates":[116.3818,39.947266]},"properties":{"amenity":"restaurant"},"id":"fid-681222fb_17323acee17_-777c"},{"type":"Feature","geometry":{"type":"Point","coordinates":[116.380035,39.94693]},"properties":{"amenity":"restaurant"},"id":"fid-681222fb_17323acee17_-777b"},{"type":"Feature","geometry":{"type":"Point","coordinates":[116.379671,39.943801]},"properties":{"amenity":"restaurant"},"id":"fid-681222fb_17323acee17_-777a"},{"type":"Feature","geometry":{"type":"Point","coordinates":[116.379495,39.942792]},"properties":{"amenity":"restaurant"},"id":"fid-681222fb_17323acee17_-7779"},{"type":"Feature","geometry":{"type":"Point","coordinates":[116.379785,39.942516]},"properties":{"amenity":"restaurant"},"id":"fid-681222fb_17323acee17_-7778"},{"type":"Feature","geometry":{"type":"Point","coordinates":[116.381428,39.941966]},"properties":{"amenity":"restaurant"},"id":"fid-681222fb_17323acee17_-7777"},{"type":"Feature","geometry":{"type":"Point","coordinates":[116.383202,39.94201]},"properties":{"amenity":"restaurant"},"id":"fid-681222fb_17323acee17_-7776"},{"type":"Feature","geometry":{"type":"Point","coordinates":[116.436839,39.936731]},"properties":{"amenity":"restaurant"},"id":"fid-681222fb_17323acee17_-7775"},{"type":"Feature","geometry":{"type":"Point","coordinates":[116.383202,39.941256]},"properties":{"amenity":"restaurant"},"id":"fid-681222fb_17323acee17_-7774"},{"type":"Feature","geometry":{"type":"Point","coordinates":[116.384454,39.940028]},"properties":{"amenity":"restaurant"},"id":"fid-681222fb_17323acee17_-7773"},{"type":"Feature","geometry":{"type":"Point","coordinates":[116.384814,39.938859]},"properties":{"amenity":"restaurant"},"id":"fid-681222fb_17323acee17_-7772"},{"type":"Feature","geometry":{"type":"Point","coordinates":[116.386136,39.940029]},"properties":{"amenity":"restaurant"},"id":"fid-681222fb_17323acee17_-7771"},{"type":"Feature","geometry":{"type":"Point","coordinates":[116.386569,39.939836]},"properties":{"amenity":"restaurant"},"id":"fid-681222fb_17323acee17_-7770"},{"type":"Feature","geometry":{"type":"Point","coordinates":[116.388479,39.939663]},"properties":{"amenity":"restaurant"},"id":"fid-681222fb_17323acee17_-776f"},{"type":"Feature","geometry":{"type":"Point","coordinates":[116.388227,39.938595]},"properties":{"amenity":"restaurant"},"id":"fid-681222fb_17323acee17_-776e"},{"type":"Feature","geometry":{"type":"Point","coordinates":[116.385319,39.936329]},"properties":{"amenity":"restaurant"},"id":"fid-681222fb_17323acee17_-776d"},{"type":"Feature","geometry":{"type":"Point","coordinates":[116.386532,39.935428]},"properties":{"amenity":"restaurant"},"id":"fid-681222fb_17323acee17_-776c"},{"type":"Feature","geometry":{"type":"Point","coordinates":[116.388277,39.933913]},"properties":{"amenity":"restaurant"},"id":"fid-681222fb_17323acee17_-776b"},{"type":"Feature","geometry":{"type":"Point","coordinates":[116.440731,39.934032]},"properties":{"amenity":"restaurant"},"id":"fid-681222fb_17323acee17_-776a"},{"type":"Feature","geometry":{"type":"Point","coordinates":[116.388401,39.935377]},"properties":{"amenity":"restaurant"},"id":"fid-681222fb_17323acee17_-7769"},{"type":"Feature","geometry":{"type":"Point","coordinates":[116.388739,39.934016]},"properties":{"amenity":"restaurant"},"id":"fid-681222fb_17323acee17_-7768"},{"type":"Feature","geometry":{"type":"Point","coordinates":[116.389469,39.934001]},"properties":{"amenity":"restaurant"},"id":"fid-681222fb_17323acee17_-7767"},{"type":"Feature","geometry":{"type":"Point","coordinates":[116.389469,39.935779]},"properties":{"amenity":"restaurant"},"id":"fid-681222fb_17323acee17_-7766"},{"type":"Feature","geometry":{"type":"Point","coordinates":[116.390229,39.936197]},"properties":{"amenity":"restaurant"},"id":"fid-681222fb_17323acee17_-7765"},{"type":"Feature","geometry":{"type":"Point","coordinates":[116.390907,39.935516]},"properties":{"amenity":"restaurant"},"id":"fid-681222fb_17323acee17_-7764"},{"type":"Feature","geometry":{"type":"Point","coordinates":[116.390935,39.93515]},"properties":{"amenity":"restaurant"},"id":"fid-681222fb_17323acee17_-7763"},{"type":"Feature","geometry":{"type":"Point","coordinates":[116.391108,39.936503]},"properties":{"amenity":"restaurant"},"id":"fid-681222fb_17323acee17_-7762"},{"type":"Feature","geometry":{"type":"Point","coordinates":[116.391764,39.936948]},"properties":{"amenity":"restaurant"},"id":"fid-681222fb_17323acee17_-7761"},{"type":"Feature","geometry":{"type":"Point","coordinates":[116.393418,39.938068]},"properties":{"amenity":"restaurant"},"id":"fid-681222fb_17323acee17_-7760"},{"type":"Feature","geometry":{"type":"Point","coordinates":[116.373059,39.911024]},"properties":{"amenity":"restaurant"},"id":"fid-681222fb_17323acee17_-775f"},{"type":"Feature","geometry":{"type":"Point","coordinates":[116.393165,39.93793]},"properties":{"amenity":"restaurant"},"id":"fid-681222fb_17323acee17_-775e"},{"type":"Feature","geometry":{"type":"Point","coordinates":[116.392864,39.938624]},"properties":{"amenity":"restaurant"},"id":"fid-681222fb_17323acee17_-775d"},{"type":"Feature","geometry":{"type":"Point","coordinates":[116.39346,39.93875]},"properties":{"amenity":"cafe"},"id":"fid-681222fb_17323acee17_-775c"},{"type":"Feature","geometry":{"type":"Point","coordinates":[116.393193,39.938845]},"properties":{"amenity":"restaurant"},"id":"fid-681222fb_17323acee17_-775b"},{"type":"Feature","geometry":{"type":"Point","coordinates":[116.386892,39.94469]},"properties":{"amenity":"restaurant"},"id":"fid-681222fb_17323acee17_-775a"},{"type":"Feature","geometry":{"type":"Point","coordinates":[116.387918,39.94354]},"properties":{"amenity":"restaurant"},"id":"fid-681222fb_17323acee17_-7759"},{"type":"Feature","geometry":{"type":"Point","coordinates":[116.387511,39.943184]},"properties":{"amenity":"restaurant"},"id":"fid-681222fb_17323acee17_-7758"},{"type":"Feature","geometry":{"type":"Point","coordinates":[116.388621,39.943594]},"properties":{"amenity":"restaurant"},"id":"fid-681222fb_17323acee17_-7757"},{"type":"Feature","geometry":{"type":"Point","coordinates":[116.388143,39.943282]},"properties":{"amenity":"restaurant"},"id":"fid-681222fb_17323acee17_-7756"},{"type":"Feature","geometry":{"type":"Point","coordinates":[116.391234,39.941713]},"properties":{"amenity":"restaurant"},"id":"fid-681222fb_17323acee17_-7755"},{"type":"Feature","geometry":{"type":"Point","coordinates":[116.43825,39.936885]},"properties":{"amenity":"restaurant"},"id":"fid-681222fb_17323acee17_-7754"},{"type":"Feature","geometry":{"type":"Point","coordinates":[116.391922,39.940045]},"properties":{"amenity":"restaurant"},"id":"fid-681222fb_17323acee17_-7753"},{"type":"Feature","geometry":{"type":"Point","coordinates":[116.392217,39.940185]},"properties":{"amenity":"restaurant"},"id":"fid-681222fb_17323acee17_-7752"},{"type":"Feature","geometry":{"type":"Point","coordinates":[116.392624,39.940207]},"properties":{"amenity":"restaurant"},"id":"fid-681222fb_17323acee17_-7751"},{"type":"Feature","geometry":{"type":"Point","coordinates":[116.392147,39.940551]},"properties":{"amenity":"restaurant"},"id":"fid-681222fb_17323acee17_-7750"},{"type":"Feature","geometry":{"type":"Point","coordinates":[116.392596,39.94081]},"properties":{"amenity":"restaurant"},"id":"fid-681222fb_17323acee17_-774f"},{"type":"Feature","geometry":{"type":"Point","coordinates":[116.392877,39.93955]},"properties":{"amenity":"restaurant"},"id":"fid-681222fb_17323acee17_-774e"},{"type":"Feature","geometry":{"type":"Point","coordinates":[116.393425,39.939325]},"properties":{"amenity":"restaurant"},"id":"fid-681222fb_17323acee17_-774d"},{"type":"Feature","geometry":{"type":"Point","coordinates":[116.393018,39.939272]},"properties":{"amenity":"restaurant"},"id":"fid-681222fb_17323acee17_-774c"},{"type":"Feature","geometry":{"type":"Point","coordinates":[116.395841,39.939595]},"properties":{"amenity":"restaurant"},"id":"fid-681222fb_17323acee17_-774b"},{"type":"Feature","geometry":{"type":"Point","coordinates":[116.395672,39.939423]},"properties":{"amenity":"restaurant"},"id":"fid-681222fb_17323acee17_-774a"},{"type":"Feature","geometry":{"type":"Point","coordinates":[116.43626,39.936652]},"properties":{"amenity":"restaurant"},"id":"fid-681222fb_17323acee17_-7749"},{"type":"Feature","geometry":{"type":"Point","coordinates":[116.395265,39.939735]},"properties":{"amenity":"restaurant"},"id":"fid-681222fb_17323acee17_-7748"},{"type":"Feature","geometry":{"type":"Point","coordinates":[116.39431,39.93982]},"properties":{"amenity":"restaurant"},"id":"fid-681222fb_17323acee17_-7747"},{"type":"Feature","geometry":{"type":"Point","coordinates":[116.394408,39.938916]},"properties":{"amenity":"restaurant"},"id":"fid-681222fb_17323acee17_-7746"},{"type":"Feature","geometry":{"type":"Point","coordinates":[116.395939,39.9367]},"properties":{"amenity":"restaurant"},"id":"fid-681222fb_17323acee17_-7745"},{"type":"Feature","geometry":{"type":"Point","coordinates":[116.395968,39.935397]},"properties":{"amenity":"restaurant"},"id":"fid-681222fb_17323acee17_-7744"},{"type":"Feature","geometry":{"type":"Point","coordinates":[116.395149,39.935921]},"properties":{"amenity":"restaurant"},"id":"fid-681222fb_17323acee17_-7743"},{"type":"Feature","geometry":{"type":"Point","coordinates":[116.394747,39.935561]},"properties":{"amenity":"restaurant"},"id":"fid-681222fb_17323acee17_-7742"},{"type":"Feature","geometry":{"type":"Point","coordinates":[116.394827,39.934573]},"properties":{"amenity":"restaurant"},"id":"fid-681222fb_17323acee17_-7741"},{"type":"Feature","geometry":{"type":"Point","coordinates":[116.395821,39.93444]},"properties":{"amenity":"restaurant"},"id":"fid-681222fb_17323acee17_-7740"},{"type":"Feature","geometry":{"type":"Point","coordinates":[116.396049,39.934101]},"properties":{"amenity":"restaurant"},"id":"fid-681222fb_17323acee17_-773f"},{"type":"Feature","geometry":{"type":"Point","coordinates":[116.439471,39.939585]},"properties":{"amenity":"restaurant"},"id":"fid-681222fb_17323acee17_-773e"},{"type":"Feature","geometry":{"type":"Point","coordinates":[116.39587,39.932803]},"properties":{"amenity":"restaurant"},"id":"fid-681222fb_17323acee17_-773d"},{"type":"Feature","geometry":{"type":"Point","coordinates":[116.395874,39.933658]},"properties":{"amenity":"restaurant"},"id":"fid-681222fb_17323acee17_-773c"},{"type":"Feature","geometry":{"type":"Point","coordinates":[116.393458,39.933821]},"properties":{"amenity":"restaurant"},"id":"fid-681222fb_17323acee17_-773b"},{"type":"Feature","geometry":{"type":"Point","coordinates":[116.393068,39.934068]},"properties":{"amenity":"restaurant"},"id":"fid-681222fb_17323acee17_-773a"},{"type":"Feature","geometry":{"type":"Point","coordinates":[116.398401,39.936392]},"properties":{"amenity":"restaurant"},"id":"fid-681222fb_17323acee17_-7739"},{"type":"Feature","geometry":{"type":"Point","coordinates":[116.398358,39.936428]},"properties":{"amenity":"restaurant"},"id":"fid-681222fb_17323acee17_-7738"},{"type":"Feature","geometry":{"type":"Point","coordinates":[116.426332,39.920015]},"properties":{"amenity":"restaurant"},"id":"fid-681222fb_17323acee17_-7737"},{"type":"Feature","geometry":{"type":"Point","coordinates":[116.406563,39.916021]},"properties":{"amenity":"restaurant"},"id":"fid-681222fb_17323acee17_-7736"},{"type":"Feature","geometry":{"type":"Point","coordinates":[116.395258,39.91816]},"properties":{"amenity":"cafe"},"id":"fid-681222fb_17323acee17_-7735"},{"type":"Feature","geometry":{"type":"Point","coordinates":[116.399681,39.925676]},"properties":{"amenity":"cafe"},"id":"fid-681222fb_17323acee17_-7734"},{"type":"Feature","geometry":{"type":"Point","coordinates":[116.442104,39.934036]},"properties":{"amenity":"restaurant"},"id":"fid-681222fb_17323acee17_-7733"},{"type":"Feature","geometry":{"type":"Point","coordinates":[116.399776,39.935625]},"properties":{"amenity":"restaurant"},"id":"fid-681222fb_17323acee17_-7732"},{"type":"Feature","geometry":{"type":"Point","coordinates":[116.399777,39.940811]},"properties":{"amenity":"cafe"},"id":"fid-681222fb_17323acee17_-7731"},{"type":"Feature","geometry":{"type":"Point","coordinates":[116.395422,39.936161]},"properties":{"amenity":"cafe"},"id":"fid-681222fb_17323acee17_-7730"},{"type":"Feature","geometry":{"type":"Point","coordinates":[116.392398,39.894622]},"properties":{"amenity":"cafe"},"id":"fid-681222fb_17323acee17_-772f"},{"type":"Feature","geometry":{"type":"Point","coordinates":[116.363063,39.916349]},"properties":{"amenity":"cafe"},"id":"fid-681222fb_17323acee17_-772e"},{"type":"Feature","geometry":{"type":"Point","coordinates":[116.411154,39.944208]},"properties":{"amenity":"cafe"},"id":"fid-681222fb_17323acee17_-772d"},{"type":"Feature","geometry":{"type":"Point","coordinates":[116.353497,39.919558]},"properties":{"amenity":"restaurant"},"id":"fid-681222fb_17323acee17_-772c"},{"type":"Feature","geometry":{"type":"Point","coordinates":[116.393514,39.938641]},"properties":{"amenity":"cafe"},"id":"fid-681222fb_17323acee17_-772b"},{"type":"Feature","geometry":{"type":"Point","coordinates":[116.393858,39.94488]},"properties":{"amenity":"restaurant"},"id":"fid-681222fb_17323acee17_-772a"},{"type":"Feature","geometry":{"type":"Point","coordinates":[116.394351,39.887199]},"properties":{"amenity":"restaurant"},"id":"fid-681222fb_17323acee17_-7729"},{"type":"Feature","geometry":{"type":"Point","coordinates":[116.42856,39.892945]},"properties":{"amenity":"restaurant"},"id":"fid-681222fb_17323acee17_-7728"},{"type":"Feature","geometry":{"type":"Point","coordinates":[116.437288,39.937066]},"properties":{"amenity":"restaurant"},"id":"fid-681222fb_17323acee17_-7727"},{"type":"Feature","geometry":{"type":"Point","coordinates":[116.394344,39.887181]},"properties":{"amenity":"restaurant"},"id":"fid-681222fb_17323acee17_-7726"},{"type":"Feature","geometry":{"type":"Point","coordinates":[116.438335,39.940605]},"properties":{"amenity":"cafe"},"id":"fid-681222fb_17323acee17_-7725"},{"type":"Feature","geometry":{"type":"Point","coordinates":[116.402979,39.945156]},"properties":{"amenity":"restaurant"},"id":"fid-681222fb_17323acee17_-7724"},{"type":"Feature","geometry":{"type":"Point","coordinates":[116.403197,39.943006]},"properties":{"amenity":"restaurant"},"id":"fid-681222fb_17323acee17_-7723"},{"type":"Feature","geometry":{"type":"Point","coordinates":[116.426383,39.917796]},"properties":{"amenity":"restaurant"},"id":"fid-681222fb_17323acee17_-7722"},{"type":"Feature","geometry":{"type":"Point","coordinates":[116.439915,39.923623]},"properties":{"amenity":"restaurant"},"id":"fid-681222fb_17323acee17_-7721"},{"type":"Feature","geometry":{"type":"Point","coordinates":[116.410387,39.910093]},"properties":{"amenity":"cafe"},"id":"fid-681222fb_17323acee17_-7720"},{"type":"Feature","geometry":{"type":"Point","coordinates":[116.392372,39.894901]},"properties":{"amenity":"restaurant"},"id":"fid-681222fb_17323acee17_-771f"},{"type":"Feature","geometry":{"type":"Point","coordinates":[116.406178,39.918969]},"properties":{"amenity":"restaurant"},"id":"fid-681222fb_17323acee17_-771e"},{"type":"Feature","geometry":{"type":"Point","coordinates":[116.406171,39.919232]},"properties":{"amenity":"restaurant"},"id":"fid-681222fb_17323acee17_-771d"},{"type":"Feature","geometry":{"type":"Point","coordinates":[116.439011,39.938717]},"properties":{"amenity":"restaurant"},"id":"fid-681222fb_17323acee17_-771c"},{"type":"Feature","geometry":{"type":"Point","coordinates":[116.441604,39.941542]},"properties":{"amenity":"cafe"},"id":"fid-681222fb_17323acee17_-771b"},{"type":"Feature","geometry":{"type":"Point","coordinates":[116.418369,39.941]},"properties":{"amenity":"restaurant"},"id":"fid-681222fb_17323acee17_-771a"},{"type":"Feature","geometry":{"type":"Point","coordinates":[116.430278,39.93388]},"properties":{"amenity":"restaurant"},"id":"fid-681222fb_17323acee17_-7719"},{"type":"Feature","geometry":{"type":"Point","coordinates":[116.436664,39.935202]},"properties":{"amenity":"restaurant"},"id":"fid-681222fb_17323acee17_-7718"},{"type":"Feature","geometry":{"type":"Point","coordinates":[116.384019,39.90475]},"properties":{"amenity":"restaurant"},"id":"fid-681222fb_17323acee17_-7717"},{"type":"Feature","geometry":{"type":"Point","coordinates":[116.440944,39.933994]},"properties":{"amenity":"restaurant"},"id":"fid-681222fb_17323acee17_-7716"},{"type":"Feature","geometry":{"type":"Point","coordinates":[116.436674,39.93502]},"properties":{"amenity":"restaurant"},"id":"fid-681222fb_17323acee17_-7715"},{"type":"Feature","geometry":{"type":"Point","coordinates":[116.403104,39.94161]},"properties":{"amenity":"cafe"},"id":"fid-681222fb_17323acee17_-7714"},{"type":"Feature","geometry":{"type":"Point","coordinates":[116.426494,39.917259]},"properties":{"amenity":"restaurant"},"id":"fid-681222fb_17323acee17_-7713"},{"type":"Feature","geometry":{"type":"Point","coordinates":[116.403922,39.940148]},"properties":{"amenity":"restaurant"},"id":"fid-681222fb_17323acee17_-7712"},{"type":"Feature","geometry":{"type":"Point","coordinates":[116.431374,39.905305]},"properties":{"amenity":"restaurant"},"id":"fid-681222fb_17323acee17_-7711"},{"type":"Feature","geometry":{"type":"Point","coordinates":[116.418292,39.893775]},"properties":{"amenity":"restaurant"},"id":"fid-681222fb_17323acee17_-7710"},{"type":"Feature","geometry":{"type":"Point","coordinates":[116.41091,39.915936]},"properties":{"amenity":"cafe"},"id":"fid-681222fb_17323acee17_-770f"},{"type":"Feature","geometry":{"type":"Point","coordinates":[116.402473,39.946887]},"properties":{"amenity":"restaurant"},"id":"fid-681222fb_17323acee17_-770e"},{"type":"Feature","geometry":{"type":"Point","coordinates":[116.392605,39.894996]},"properties":{"amenity":"restaurant"},"id":"fid-681222fb_17323acee17_-770d"},{"type":"Feature","geometry":{"type":"Point","coordinates":[116.431991,39.932405]},"properties":{"amenity":"restaurant"},"id":"fid-681222fb_17323acee17_-770c"},{"type":"Feature","geometry":{"type":"Point","coordinates":[116.419529,39.939645]},"properties":{"amenity":"restaurant"},"id":"fid-681222fb_17323acee17_-770b"},{"type":"Feature","geometry":{"type":"Point","coordinates":[116.394156,39.943765]},"properties":{"amenity":"restaurant"},"id":"fid-681222fb_17323acee17_-770a"},{"type":"Feature","geometry":{"type":"Point","coordinates":[116.373258,39.909887]},"properties":{"amenity":"restaurant"},"id":"fid-681222fb_17323acee17_-7709"},{"type":"Feature","geometry":{"type":"Point","coordinates":[116.417293,39.935693]},"properties":{"amenity":"restaurant"},"id":"fid-681222fb_17323acee17_-7708"},{"type":"Feature","geometry":{"type":"Point","coordinates":[116.411943,39.915061]},"properties":{"amenity":"restaurant"},"id":"fid-681222fb_17323acee17_-7707"},{"type":"Feature","geometry":{"type":"Point","coordinates":[116.431808,39.905314]},"properties":{"amenity":"restaurant"},"id":"fid-681222fb_17323acee17_-7706"},{"type":"Feature","geometry":{"type":"Point","coordinates":[116.410094,39.927475]},"properties":{"amenity":"restaurant"},"id":"fid-681222fb_17323acee17_-7705"},{"type":"Feature","geometry":{"type":"Point","coordinates":[116.402809,39.946637]},"properties":{"amenity":"pub"},"id":"fid-681222fb_17323acee17_-7704"},{"type":"Feature","geometry":{"type":"Point","coordinates":[116.399439,39.940929]},"properties":{"amenity":"bar"},"id":"fid-681222fb_17323acee17_-7703"},{"type":"Feature","geometry":{"type":"Point","coordinates":[116.424315,39.885275]},"properties":{"amenity":"restaurant"},"id":"fid-681222fb_17323acee17_-7702"},{"type":"Feature","geometry":{"type":"Point","coordinates":[116.393496,39.899685]},"properties":{"amenity":"restaurant"},"id":"fid-681222fb_17323acee17_-7701"},{"type":"Feature","geometry":{"type":"Point","coordinates":[116.388459,39.893114]},"properties":{"amenity":"cafe"},"id":"fid-681222fb_17323acee17_-7700"},{"type":"Feature","geometry":{"type":"Point","coordinates":[116.401843,39.901563]},"properties":{"amenity":"bar"},"id":"fid-681222fb_17323acee17_-76ff"},{"type":"Feature","geometry":{"type":"Point","coordinates":[116.418149,39.896323]},"properties":{"amenity":"restaurant"},"id":"fid-681222fb_17323acee17_-76fe"},{"type":"Feature","geometry":{"type":"Point","coordinates":[116.401426,39.935622]},"properties":{"amenity":"bar"},"id":"fid-681222fb_17323acee17_-76fd"},{"type":"Feature","geometry":{"type":"Point","coordinates":[116.422033,39.901574]},"properties":{"amenity":"restaurant"},"id":"fid-681222fb_17323acee17_-76fc"},{"type":"Feature","geometry":{"type":"Point","coordinates":[116.437011,39.940431]},"properties":{"amenity":"restaurant"},"id":"fid-681222fb_17323acee17_-76fb"},{"type":"Feature","geometry":{"type":"Point","coordinates":[116.373424,39.910842]},"properties":{"amenity":"restaurant"},"id":"fid-681222fb_17323acee17_-76fa"},{"type":"Feature","geometry":{"type":"Point","coordinates":[116.411983,39.935667]},"properties":{"amenity":"restaurant"},"id":"fid-681222fb_17323acee17_-76f9"},{"type":"Feature","geometry":{"type":"Point","coordinates":[116.407788,39.916267]},"properties":{"amenity":"restaurant"},"id":"fid-681222fb_17323acee17_-76f8"},{"type":"Feature","geometry":{"type":"Point","coordinates":[116.417342,39.930323]},"properties":{"amenity":"restaurant"},"id":"fid-681222fb_17323acee17_-76f7"},{"type":"Feature","geometry":{"type":"Point","coordinates":[116.390547,39.893908]},"properties":{"amenity":"restaurant"},"id":"fid-681222fb_17323acee17_-76f6"},{"type":"Feature","geometry":{"type":"Point","coordinates":[116.4034,39.924324]},"properties":{"amenity":"restaurant"},"id":"fid-681222fb_17323acee17_-76f5"},{"type":"Feature","geometry":{"type":"Point","coordinates":[116.4026,39.941013]},"properties":{"amenity":"restaurant"},"id":"fid-681222fb_17323acee17_-76f4"},{"type":"Feature","geometry":{"type":"Point","coordinates":[116.407226,39.945474]},"properties":{"amenity":"restaurant"},"id":"fid-681222fb_17323acee17_-76f3"},{"type":"Feature","geometry":{"type":"Point","coordinates":[116.417562,39.938991]},"properties":{"amenity":"bar"},"id":"fid-681222fb_17323acee17_-76f2"},{"type":"Feature","geometry":{"type":"Point","coordinates":[116.417337,39.935189]},"properties":{"amenity":"restaurant"},"id":"fid-681222fb_17323acee17_-76f1"},{"type":"Feature","geometry":{"type":"Point","coordinates":[116.437418,39.940431]},"properties":{"amenity":"restaurant"},"id":"fid-681222fb_17323acee17_-76f0"},{"type":"Feature","geometry":{"type":"Point","coordinates":[116.396912,39.938229]},"properties":{"amenity":"restaurant"},"id":"fid-681222fb_17323acee17_-76ef"},{"type":"Feature","geometry":{"type":"Point","coordinates":[116.425803,39.928419]},"properties":{"amenity":"restaurant"},"id":"fid-681222fb_17323acee17_-76ee"},{"type":"Feature","geometry":{"type":"Point","coordinates":[116.403144,39.914104]},"properties":{"amenity":"cafe"},"id":"fid-681222fb_17323acee17_-76ed"},{"type":"Feature","geometry":{"type":"Point","coordinates":[116.432424,39.939212]},"properties":{"amenity":"cafe"},"id":"fid-681222fb_17323acee17_-76ec"},{"type":"Feature","geometry":{"type":"Point","coordinates":[116.427267,39.903429]},"properties":{"amenity":"cafe"},"id":"fid-681222fb_17323acee17_-76eb"},{"type":"Feature","geometry":{"type":"Point","coordinates":[116.427463,39.903673]},"properties":{"amenity":"cafe"},"id":"fid-681222fb_17323acee17_-76ea"},{"type":"Feature","geometry":{"type":"Point","coordinates":[116.432655,39.939603]},"properties":{"amenity":"restaurant"},"id":"fid-681222fb_17323acee17_-76e9"},{"type":"Feature","geometry":{"type":"Point","coordinates":[116.408576,39.91623]},"properties":{"amenity":"restaurant"},"id":"fid-681222fb_17323acee17_-76e8"},{"type":"Feature","geometry":{"type":"Point","coordinates":[116.408242,39.915425]},"properties":{"amenity":"restaurant"},"id":"fid-681222fb_17323acee17_-76e7"},{"type":"Feature","geometry":{"type":"Point","coordinates":[116.406712,39.927921]},"properties":{"amenity":"cafe"},"id":"fid-681222fb_17323acee17_-76e6"},{"type":"Feature","geometry":{"type":"Point","coordinates":[116.437568,39.940439]},"properties":{"amenity":"restaurant"},"id":"fid-681222fb_17323acee17_-76e5"},{"type":"Feature","geometry":{"type":"Point","coordinates":[116.41584,39.932791]},"properties":{"amenity":"restaurant"},"id":"fid-681222fb_17323acee17_-76e4"},{"type":"Feature","geometry":{"type":"Point","coordinates":[116.407219,39.934878]},"properties":{"amenity":"bar"},"id":"fid-681222fb_17323acee17_-76e3"},{"type":"Feature","geometry":{"type":"Point","coordinates":[116.394401,39.925446]},"properties":{"amenity":"cafe"},"id":"fid-681222fb_17323acee17_-76e2"},{"type":"Feature","geometry":{"type":"Point","coordinates":[116.404726,39.93628]},"properties":{"amenity":"restaurant"},"id":"fid-681222fb_17323acee17_-76e1"},{"type":"Feature","geometry":{"type":"Point","coordinates":[116.410661,39.94532]},"properties":{"amenity":"bar"},"id":"fid-681222fb_17323acee17_-76e0"},{"type":"Feature","geometry":{"type":"Point","coordinates":[116.393681,39.896019]},"properties":{"amenity":"restaurant"},"id":"fid-681222fb_17323acee17_-76df"},{"type":"Feature","geometry":{"type":"Point","coordinates":[116.39247,39.881014]},"properties":{"amenity":"cafe"},"id":"fid-681222fb_17323acee17_-76de"},{"type":"Feature","geometry":{"type":"Point","coordinates":[116.394125,39.938835]},"properties":{"amenity":"restaurant"},"id":"fid-681222fb_17323acee17_-76dd"},{"type":"Feature","geometry":{"type":"Point","coordinates":[116.439938,39.934557]},"properties":{"amenity":"restaurant"},"id":"fid-681222fb_17323acee17_-76dc"},{"type":"Feature","geometry":{"type":"Point","coordinates":[116.412112,39.894505]},"properties":{"amenity":"bar"},"id":"fid-681222fb_17323acee17_-76db"},{"type":"Feature","geometry":{"type":"Point","coordinates":[116.441794,39.936587]},"properties":{"amenity":"restaurant"},"id":"fid-681222fb_17323acee17_-76da"},{"type":"Feature","geometry":{"type":"Point","coordinates":[116.381542,39.947585]},"properties":{"amenity":"bar"},"id":"fid-681222fb_17323acee17_-76d9"},{"type":"Feature","geometry":{"type":"Point","coordinates":[116.418191,39.940996]},"properties":{"amenity":"restaurant"},"id":"fid-681222fb_17323acee17_-76d8"},{"type":"Feature","geometry":{"type":"Point","coordinates":[116.418126,39.940859]},"properties":{"amenity":"restaurant"},"id":"fid-681222fb_17323acee17_-76d7"},{"type":"Feature","geometry":{"type":"Point","coordinates":[116.411584,39.911195]},"properties":{"amenity":"restaurant"},"id":"fid-681222fb_17323acee17_-76d6"},{"type":"Feature","geometry":{"type":"Point","coordinates":[116.401342,39.900772]},"properties":{"amenity":"restaurant"},"id":"fid-681222fb_17323acee17_-76d5"},{"type":"Feature","geometry":{"type":"Point","coordinates":[116.4185,39.941754]},"properties":{"amenity":"restaurant"},"id":"fid-681222fb_17323acee17_-76d4"},{"type":"Feature","geometry":{"type":"Point","coordinates":[116.374695,39.910023]},"properties":{"amenity":"restaurant"},"id":"fid-681222fb_17323acee17_-76d3"},{"type":"Feature","geometry":{"type":"Point","coordinates":[116.403342,39.940142]},"properties":{"amenity":"restaurant"},"id":"fid-681222fb_17323acee17_-76d2"},{"type":"Feature","geometry":{"type":"Point","coordinates":[116.409963,39.941264]},"properties":{"amenity":"restaurant"},"id":"fid-681222fb_17323acee17_-76d1"},{"type":"Feature","geometry":{"type":"Point","coordinates":[116.377425,39.935208]},"properties":{"amenity":"restaurant"},"id":"fid-681222fb_17323acee17_-76d0"},{"type":"Feature","geometry":{"type":"Point","coordinates":[116.410138,39.939261]},"properties":{"amenity":"restaurant"},"id":"fid-681222fb_17323acee17_-76cf"},{"type":"Feature","geometry":{"type":"Point","coordinates":[116.395707,39.898131]},"properties":{"amenity":"cafe"},"id":"fid-681222fb_17323acee17_-76ce"},{"type":"Feature","geometry":{"type":"Point","coordinates":[116.396055,39.898457]},"properties":{"amenity":"cafe"},"id":"fid-681222fb_17323acee17_-76cd"},{"type":"Feature","geometry":{"type":"Point","coordinates":[116.393877,39.942622]},"properties":{"amenity":"restaurant"},"id":"fid-681222fb_17323acee17_-76cc"},{"type":"Feature","geometry":{"type":"Point","coordinates":[116.393977,39.942197]},"properties":{"amenity":"cafe"},"id":"fid-681222fb_17323acee17_-76cb"},{"type":"Feature","geometry":{"type":"Point","coordinates":[116.384157,39.903735]},"properties":{"amenity":"restaurant"},"id":"fid-681222fb_17323acee17_-76ca"},{"type":"Feature","geometry":{"type":"Point","coordinates":[116.410882,39.910335]},"properties":{"amenity":"restaurant"},"id":"fid-681222fb_17323acee17_-76c9"},{"type":"Feature","geometry":{"type":"Point","coordinates":[116.407196,39.925525]},"properties":{"amenity":"cafe"},"id":"fid-681222fb_17323acee17_-76c8"},{"type":"Feature","geometry":{"type":"Point","coordinates":[116.423687,39.930028]},"properties":{"amenity":"restaurant"},"id":"fid-681222fb_17323acee17_-76c7"},{"type":"Feature","geometry":{"type":"Point","coordinates":[116.420052,39.940917]},"properties":{"amenity":"restaurant"},"id":"fid-681222fb_17323acee17_-76c6"},{"type":"Feature","geometry":{"type":"Point","coordinates":[116.352542,39.923909]},"properties":{"amenity":"restaurant"},"id":"fid-681222fb_17323acee17_-76c5"},{"type":"Feature","geometry":{"type":"Point","coordinates":[116.430818,39.924685]},"properties":{"amenity":"restaurant"},"id":"fid-681222fb_17323acee17_-76c4"},{"type":"Feature","geometry":{"type":"Point","coordinates":[116.375967,39.910642]},"properties":{"amenity":"restaurant"},"id":"fid-681222fb_17323acee17_-76c3"},{"type":"Feature","geometry":{"type":"Point","coordinates":[116.411376,39.92045]},"properties":{"amenity":"restaurant"},"id":"fid-681222fb_17323acee17_-76c2"},{"type":"Feature","geometry":{"type":"Point","coordinates":[116.402178,39.936221]},"properties":{"amenity":"restaurant"},"id":"fid-681222fb_17323acee17_-76c1"},{"type":"Feature","geometry":{"type":"Point","coordinates":[116.395578,39.933068]},"properties":{"amenity":"restaurant"},"id":"fid-681222fb_17323acee17_-76c0"},{"type":"Feature","geometry":{"type":"Point","coordinates":[116.399791,39.938092]},"properties":{"amenity":"bar"},"id":"fid-681222fb_17323acee17_-76bf"},{"type":"Feature","geometry":{"type":"Point","coordinates":[116.416913,39.941992]},"properties":{"amenity":"cafe"},"id":"fid-681222fb_17323acee17_-76be"},{"type":"Feature","geometry":{"type":"Point","coordinates":[116.418255,39.925931]},"properties":{"amenity":"restaurant"},"id":"fid-681222fb_17323acee17_-76bd"},{"type":"Feature","geometry":{"type":"Point","coordinates":[116.41897,39.925819]},"properties":{"amenity":"bar"},"id":"fid-681222fb_17323acee17_-76bc"},{"type":"Feature","geometry":{"type":"Point","coordinates":[116.399844,39.938185]},"properties":{"amenity":"restaurant"},"id":"fid-681222fb_17323acee17_-76bb"},{"type":"Feature","geometry":{"type":"Point","coordinates":[116.403058,39.942434]},"properties":{"amenity":"restaurant"},"id":"fid-681222fb_17323acee17_-76ba"},{"type":"Feature","geometry":{"type":"Point","coordinates":[116.397846,39.919081]},"properties":{"amenity":"cafe"},"id":"fid-681222fb_17323acee17_-76b9"},{"type":"Feature","geometry":{"type":"Point","coordinates":[116.399946,39.940951]},"properties":{"amenity":"cafe"},"id":"fid-681222fb_17323acee17_-76b8"},{"type":"Feature","geometry":{"type":"Point","coordinates":[116.417225,39.925368]},"properties":{"amenity":"restaurant"},"id":"fid-681222fb_17323acee17_-76b7"},{"type":"Feature","geometry":{"type":"Point","coordinates":[116.384844,39.894544]},"properties":{"amenity":"restaurant"},"id":"fid-681222fb_17323acee17_-76b6"},{"type":"Feature","geometry":{"type":"Point","coordinates":[116.418756,39.932879]},"properties":{"amenity":"bar"},"id":"fid-681222fb_17323acee17_-76b5"},{"type":"Feature","geometry":{"type":"Point","coordinates":[116.40342,39.912006]},"properties":{"amenity":"bar"},"id":"fid-681222fb_17323acee17_-76b4"},{"type":"Feature","geometry":{"type":"Point","coordinates":[116.399941,39.94149]},"properties":{"amenity":"restaurant"},"id":"fid-681222fb_17323acee17_-76b3"},{"type":"Feature","geometry":{"type":"Point","coordinates":[116.392797,39.881283]},"properties":{"amenity":"restaurant"},"id":"fid-681222fb_17323acee17_-76b2"},{"type":"Feature","geometry":{"type":"Point","coordinates":[116.385489,39.884243]},"properties":{"amenity":"restaurant"},"id":"fid-681222fb_17323acee17_-76b1"},{"type":"Feature","geometry":{"type":"Point","coordinates":[116.409905,39.94536]},"properties":{"amenity":"cafe"},"id":"fid-681222fb_17323acee17_-76b0"},{"type":"Feature","geometry":{"type":"Point","coordinates":[116.410723,39.945271]},"properties":{"amenity":"bar"},"id":"fid-681222fb_17323acee17_-76af"},{"type":"Feature","geometry":{"type":"Point","coordinates":[116.418542,39.941841]},"properties":{"amenity":"restaurant"},"id":"fid-681222fb_17323acee17_-76ae"},{"type":"Feature","geometry":{"type":"Point","coordinates":[116.398492,39.940898]},"properties":{"amenity":"restaurant"},"id":"fid-681222fb_17323acee17_-76ad"},{"type":"Feature","geometry":{"type":"Point","coordinates":[116.419196,39.941771]},"properties":{"amenity":"restaurant"},"id":"fid-681222fb_17323acee17_-76ac"},{"type":"Feature","geometry":{"type":"Point","coordinates":[116.429696,39.940923]},"properties":{"amenity":"bar"},"id":"fid-681222fb_17323acee17_-76ab"},{"type":"Feature","geometry":{"type":"Point","coordinates":[116.416926,39.941681]},"properties":{"amenity":"restaurant"},"id":"fid-681222fb_17323acee17_-76aa"},{"type":"Feature","geometry":{"type":"Point","coordinates":[116.400419,39.94667]},"properties":{"amenity":"bar"},"id":"fid-681222fb_17323acee17_-76a9"},{"type":"Feature","geometry":{"type":"Point","coordinates":[116.395246,39.897706]},"properties":{"amenity":"restaurant"},"id":"fid-681222fb_17323acee17_-76a8"},{"type":"Feature","geometry":{"type":"Point","coordinates":[116.395755,39.898289]},"properties":{"amenity":"restaurant"},"id":"fid-681222fb_17323acee17_-76a7"},{"type":"Feature","geometry":{"type":"Point","coordinates":[116.395227,39.898143]},"properties":{"amenity":"restaurant"},"id":"fid-681222fb_17323acee17_-76a6"},{"type":"Feature","geometry":{"type":"Point","coordinates":[116.395493,39.898091]},"properties":{"amenity":"restaurant"},"id":"fid-681222fb_17323acee17_-76a5"},{"type":"Feature","geometry":{"type":"Point","coordinates":[116.396987,39.897623]},"properties":{"amenity":"cafe"},"id":"fid-681222fb_17323acee17_-76a4"},{"type":"Feature","geometry":{"type":"Point","coordinates":[116.39708,39.898154]},"properties":{"amenity":"cafe"},"id":"fid-681222fb_17323acee17_-76a3"},{"type":"Feature","geometry":{"type":"Point","coordinates":[116.406635,39.941035]},"properties":{"amenity":"bar"},"id":"fid-681222fb_17323acee17_-76a2"},{"type":"Feature","geometry":{"type":"Point","coordinates":[116.434545,39.904823]},"properties":{"amenity":"cafe"},"id":"fid-681222fb_17323acee17_-76a1"},{"type":"Feature","geometry":{"type":"Point","coordinates":[116.344413,39.907877]},"properties":{"amenity":"cafe"},"id":"fid-681222fb_17323acee17_-76a0"},{"type":"Feature","geometry":{"type":"Point","coordinates":[116.412465,39.899577]},"properties":{"amenity":"restaurant"},"id":"fid-681222fb_17323acee17_-769f"},{"type":"Feature","geometry":{"type":"Point","coordinates":[116.440338,39.921864]},"properties":{"amenity":"cafe"},"id":"fid-681222fb_17323acee17_-769e"},{"type":"Feature","geometry":{"type":"Point","coordinates":[116.395873,39.939431]},"properties":{"amenity":"cafe"},"id":"fid-681222fb_17323acee17_-769d"},{"type":"Feature","geometry":{"type":"Point","coordinates":[116.403191,39.939727]},"properties":{"amenity":"cafe"},"id":"fid-681222fb_17323acee17_-769c"},{"type":"Feature","geometry":{"type":"Point","coordinates":[116.345466,39.926522]},"properties":{"amenity":"restaurant"},"id":"fid-681222fb_17323acee17_-769b"},{"type":"Feature","geometry":{"type":"Point","coordinates":[116.428449,39.924039]},"properties":{"amenity":"restaurant"},"id":"fid-681222fb_17323acee17_-769a"},{"type":"Feature","geometry":{"type":"Point","coordinates":[116.373047,39.925023]},"properties":{"amenity":"restaurant"},"id":"fid-681222fb_17323acee17_-7699"},{"type":"Feature","geometry":{"type":"Point","coordinates":[116.41896,39.944227]},"properties":{"amenity":"cafe"},"id":"fid-681222fb_17323acee17_-7698"},{"type":"Feature","geometry":{"type":"Point","coordinates":[116.408722,39.943088]},"properties":{"amenity":"restaurant"},"id":"fid-681222fb_17323acee17_-7697"},{"type":"Feature","geometry":{"type":"Point","coordinates":[116.40454,39.940714]},"properties":{"amenity":"cafe"},"id":"fid-681222fb_17323acee17_-7696"},{"type":"Feature","geometry":{"type":"Point","coordinates":[116.403105,39.941781]},"properties":{"amenity":"bar"},"id":"fid-681222fb_17323acee17_-7695"},{"type":"Feature","geometry":{"type":"Point","coordinates":[116.344317,39.928592]},"properties":{"amenity":"restaurant"},"id":"fid-681222fb_17323acee17_-7694"},{"type":"Feature","geometry":{"type":"Point","coordinates":[116.358243,39.888915]},"properties":{"amenity":"restaurant"},"id":"fid-681222fb_17323acee17_-7693"},{"type":"Feature","geometry":{"type":"Point","coordinates":[116.416403,39.916968]},"properties":{"amenity":"restaurant"},"id":"fid-681222fb_17323acee17_-7692"},{"type":"Feature","geometry":{"type":"Point","coordinates":[116.396688,39.897077]},"properties":{"amenity":"restaurant"},"id":"fid-681222fb_17323acee17_-7691"},{"type":"Feature","geometry":{"type":"Point","coordinates":[116.415131,39.915996]},"properties":{"amenity":"restaurant"},"id":"fid-681222fb_17323acee17_-7690"},{"type":"Feature","geometry":{"type":"Point","coordinates":[116.416725,39.915732]},"properties":{"amenity":"restaurant"},"id":"fid-681222fb_17323acee17_-768f"},{"type":"Feature","geometry":{"type":"Point","coordinates":[116.42171,39.883611]},"properties":{"amenity":"restaurant"},"id":"fid-681222fb_17323acee17_-768e"},{"type":"Feature","geometry":{"type":"Point","coordinates":[116.409603,39.942634]},"properties":{"amenity":"cafe"},"id":"fid-681222fb_17323acee17_-768d"},{"type":"Feature","geometry":{"type":"Point","coordinates":[116.414777,39.94061]},"properties":{"amenity":"bar"},"id":"fid-681222fb_17323acee17_-768c"},{"type":"Feature","geometry":{"type":"Point","coordinates":[116.394669,39.896916]},"properties":{"amenity":"bar"},"id":"fid-681222fb_17323acee17_-768b"},{"type":"Feature","geometry":{"type":"Point","coordinates":[116.392726,39.895036]},"properties":{"amenity":"bar"},"id":"fid-681222fb_17323acee17_-768a"},{"type":"Feature","geometry":{"type":"Point","coordinates":[116.397638,39.893762]},"properties":{"amenity":"restaurant"},"id":"fid-681222fb_17323acee17_-7689"},{"type":"Feature","geometry":{"type":"Point","coordinates":[116.373436,39.93056]},"properties":{"amenity":"restaurant"},"id":"fid-681222fb_17323acee17_-7688"},{"type":"Feature","geometry":{"type":"Point","coordinates":[116.39752,39.915792]},"properties":{"amenity":"cafe"},"id":"fid-681222fb_17323acee17_-7687"},{"type":"Feature","geometry":{"type":"Point","coordinates":[116.391504,39.89457]},"properties":{"amenity":"restaurant"},"id":"fid-681222fb_17323acee17_-7686"},{"type":"Feature","geometry":{"type":"Point","coordinates":[116.406592,39.910713]},"properties":{"amenity":"restaurant"},"id":"fid-681222fb_17323acee17_-7685"},{"type":"Feature","geometry":{"type":"Point","coordinates":[116.425749,39.935565]},"properties":{"amenity":"restaurant"},"id":"fid-681222fb_17323acee17_-7684"},{"type":"Feature","geometry":{"type":"Point","coordinates":[116.397492,39.896115]},"properties":{"amenity":"restaurant"},"id":"fid-681222fb_17323acee17_-7683"},{"type":"Feature","geometry":{"type":"Point","coordinates":[116.39553,39.898519]},"properties":{"amenity":"restaurant"},"id":"fid-681222fb_17323acee17_-7682"},{"type":"Feature","geometry":{"type":"Point","coordinates":[116.396517,39.94197]},"properties":{"amenity":"restaurant"},"id":"fid-681222fb_17323acee17_-7681"},{"type":"Feature","geometry":{"type":"Point","coordinates":[116.44296,39.934044]},"properties":{"amenity":"restaurant"},"id":"fid-681222fb_17323acee17_-7680"},{"type":"Feature","geometry":{"type":"Point","coordinates":[116.407511,39.923964]},"properties":{"amenity":"restaurant"},"id":"fid-681222fb_17323acee17_-767f"},{"type":"Feature","geometry":{"type":"Point","coordinates":[116.394273,39.942559]},"properties":{"amenity":"restaurant"},"id":"fid-681222fb_17323acee17_-767e"},{"type":"Feature","geometry":{"type":"Point","coordinates":[116.394243,39.942746]},"properties":{"amenity":"restaurant"},"id":"fid-681222fb_17323acee17_-767d"},{"type":"Feature","geometry":{"type":"Point","coordinates":[116.416863,39.910453]},"properties":{"amenity":"restaurant"},"id":"fid-681222fb_17323acee17_-767c"},{"type":"Feature","geometry":{"type":"Point","coordinates":[116.417248,39.909706]},"properties":{"amenity":"restaurant"},"id":"fid-681222fb_17323acee17_-767b"},{"type":"Feature","geometry":{"type":"Point","coordinates":[116.416936,39.909103]},"properties":{"amenity":"restaurant"},"id":"fid-681222fb_17323acee17_-767a"},{"type":"Feature","geometry":{"type":"Point","coordinates":[116.366149,39.884673]},"properties":{"amenity":"restaurant"},"id":"fid-681222fb_17323acee17_-7679"},{"type":"Feature","geometry":{"type":"Point","coordinates":[116.410423,39.910655]},"properties":{"amenity":"restaurant"},"id":"fid-681222fb_17323acee17_-7678"},{"type":"Feature","geometry":{"type":"Point","coordinates":[116.394226,39.941989]},"properties":{"amenity":"restaurant"},"id":"fid-681222fb_17323acee17_-7677"},{"type":"Feature","geometry":{"type":"Point","coordinates":[116.405298,39.94374]},"properties":{"amenity":"bar"},"id":"fid-681222fb_17323acee17_-7676"},{"type":"Feature","geometry":{"type":"Point","coordinates":[116.431745,39.91198]},"properties":{"amenity":"restaurant"},"id":"fid-681222fb_17323acee17_-7675"},{"type":"Feature","geometry":{"type":"Point","coordinates":[116.411575,39.943555]},"properties":{"amenity":"bar"},"id":"fid-681222fb_17323acee17_-7674"},{"type":"Feature","geometry":{"type":"Point","coordinates":[116.403099,39.941199]},"properties":{"amenity":"bar"},"id":"fid-681222fb_17323acee17_-7673"},{"type":"Feature","geometry":{"type":"Point","coordinates":[116.393174,39.89975]},"properties":{"amenity":"restaurant"},"id":"fid-681222fb_17323acee17_-7672"},{"type":"Feature","geometry":{"type":"Point","coordinates":[116.384816,39.894392]},"properties":{"amenity":"restaurant"},"id":"fid-681222fb_17323acee17_-7671"},{"type":"Feature","geometry":{"type":"Point","coordinates":[116.439969,39.922132]},"properties":{"amenity":"restaurant"},"id":"fid-681222fb_17323acee17_-7670"},{"type":"Feature","geometry":{"type":"Point","coordinates":[116.37312,39.910773]},"properties":{"amenity":"restaurant"},"id":"fid-681222fb_17323acee17_-766f"},{"type":"Feature","geometry":{"type":"Point","coordinates":[116.352827,39.940861]},"properties":{"amenity":"restaurant"},"id":"fid-681222fb_17323acee17_-766e"},{"type":"Feature","geometry":{"type":"Point","coordinates":[116.417231,39.940424]},"properties":{"amenity":"bar"},"id":"fid-681222fb_17323acee17_-766d"},{"type":"Feature","geometry":{"type":"Point","coordinates":[116.395272,39.917713]},"properties":{"amenity":"restaurant"},"id":"fid-681222fb_17323acee17_-766c"},{"type":"Feature","geometry":{"type":"Point","coordinates":[116.405298,39.94374]},"properties":{"amenity":"bar"},"id":"fid-681222fb_17323acee17_-766b"},{"type":"Feature","geometry":{"type":"Point","coordinates":[116.411642,39.916056]},"properties":{"amenity":"restaurant"},"id":"fid-681222fb_17323acee17_-766a"},{"type":"Feature","geometry":{"type":"Point","coordinates":[116.40315,39.941146]},"properties":{"amenity":"cafe"},"id":"fid-681222fb_17323acee17_-7669"},{"type":"Feature","geometry":{"type":"Point","coordinates":[116.394709,39.899161]},"properties":{"amenity":"restaurant"},"id":"fid-681222fb_17323acee17_-7668"},{"type":"Feature","geometry":{"type":"Point","coordinates":[116.39583,39.897449]},"properties":{"amenity":"restaurant"},"id":"fid-681222fb_17323acee17_-7667"},{"type":"Feature","geometry":{"type":"Point","coordinates":[116.393643,39.899216]},"properties":{"amenity":"restaurant"},"id":"fid-681222fb_17323acee17_-7666"},{"type":"Feature","geometry":{"type":"Point","coordinates":[116.417904,39.923803]},"properties":{"amenity":"restaurant"},"id":"fid-681222fb_17323acee17_-7665"},{"type":"Feature","geometry":{"type":"Point","coordinates":[116.39043,39.893856]},"properties":{"amenity":"restaurant"},"id":"fid-681222fb_17323acee17_-7664"},{"type":"Feature","geometry":{"type":"Point","coordinates":[116.416375,39.909012]},"properties":{"amenity":"cafe"},"id":"fid-681222fb_17323acee17_-7663"},{"type":"Feature","geometry":{"type":"Point","coordinates":[116.40298,39.94275]},"properties":{"amenity":"bar"},"id":"fid-681222fb_17323acee17_-7662"},{"type":"Feature","geometry":{"type":"Point","coordinates":[116.402977,39.94303]},"properties":{"amenity":"bar"},"id":"fid-681222fb_17323acee17_-7661"},{"type":"Feature","geometry":{"type":"Point","coordinates":[116.405006,39.941576]},"properties":{"amenity":"restaurant"},"id":"fid-681222fb_17323acee17_-7660"},{"type":"Feature","geometry":{"type":"Point","coordinates":[116.403059,39.942367]},"properties":{"amenity":"bar"},"id":"fid-681222fb_17323acee17_-765f"},{"type":"Feature","geometry":{"type":"Point","coordinates":[116.417613,39.897581]},"properties":{"amenity":"restaurant"},"id":"fid-681222fb_17323acee17_-765e"},{"type":"Feature","geometry":{"type":"Point","coordinates":[116.398132,39.882759]},"properties":{"amenity":"cafe"},"id":"fid-681222fb_17323acee17_-765d"},{"type":"Feature","geometry":{"type":"Point","coordinates":[116.395184,39.897456]},"properties":{"amenity":"cafe"},"id":"fid-681222fb_17323acee17_-765c"},{"type":"Feature","geometry":{"type":"Point","coordinates":[116.4153,39.908966]},"properties":{"amenity":"cafe"},"id":"fid-681222fb_17323acee17_-765b"},{"type":"Feature","geometry":{"type":"Point","coordinates":[116.411521,39.900576]},"properties":{"amenity":"restaurant"},"id":"fid-681222fb_17323acee17_-765a"},{"type":"Feature","geometry":{"type":"Point","coordinates":[116.418182,39.898086]},"properties":{"amenity":"cafe"},"id":"fid-681222fb_17323acee17_-7659"},{"type":"Feature","geometry":{"type":"Point","coordinates":[116.439458,39.908047]},"properties":{"amenity":"restaurant"},"id":"fid-681222fb_17323acee17_-7658"},{"type":"Feature","geometry":{"type":"Point","coordinates":[116.411521,39.900576]},"properties":{"amenity":"restaurant"},"id":"fid-681222fb_17323acee17_-7657"},{"type":"Feature","geometry":{"type":"Point","coordinates":[116.394276,39.89693]},"properties":{"amenity":"restaurant"},"id":"fid-681222fb_17323acee17_-7656"},{"type":"Feature","geometry":{"type":"Point","coordinates":[116.397894,39.941989]},"properties":{"amenity":"bar"},"id":"fid-681222fb_17323acee17_-7655"},{"type":"Feature","geometry":{"type":"Point","coordinates":[116.420312,39.887206]},"properties":{"amenity":"restaurant"},"id":"fid-681222fb_17323acee17_-7654"},{"type":"Feature","geometry":{"type":"Point","coordinates":[116.409246,39.928086]},"properties":{"amenity":"restaurant"},"id":"fid-681222fb_17323acee17_-7653"},{"type":"Feature","geometry":{"type":"Point","coordinates":[116.375237,39.934921]},"properties":{"amenity":"restaurant"},"id":"fid-681222fb_17323acee17_-7652"},{"type":"Feature","geometry":{"type":"Point","coordinates":[116.416822,39.91574]},"properties":{"amenity":"restaurant"},"id":"fid-681222fb_17323acee17_-7651"},{"type":"Feature","geometry":{"type":"Point","coordinates":[116.412408,39.932874]},"properties":{"amenity":"restaurant"},"id":"fid-681222fb_17323acee17_-7650"},{"type":"Feature","geometry":{"type":"Point","coordinates":[116.39859,39.896119]},"properties":{"amenity":"restaurant"},"id":"fid-681222fb_17323acee17_-764f"},{"type":"Feature","geometry":{"type":"Point","coordinates":[116.407657,39.945432]},"properties":{"amenity":"restaurant"},"id":"fid-681222fb_17323acee17_-764e"},{"type":"Feature","geometry":{"type":"Point","coordinates":[116.408884,39.93718]},"properties":{"amenity":"restaurant"},"id":"fid-681222fb_17323acee17_-764d"},{"type":"Feature","geometry":{"type":"Point","coordinates":[116.408821,39.937958]},"properties":{"amenity":"restaurant"},"id":"fid-681222fb_17323acee17_-764c"},{"type":"Feature","geometry":{"type":"Point","coordinates":[116.403723,39.940702]},"properties":{"amenity":"cafe"},"id":"fid-681222fb_17323acee17_-764b"},{"type":"Feature","geometry":{"type":"Point","coordinates":[116.395746,39.918817]},"properties":{"amenity":"restaurant"},"id":"fid-681222fb_17323acee17_-764a"},{"type":"Feature","geometry":{"type":"Point","coordinates":[116.402916,39.943921]},"properties":{"amenity":"bar"},"id":"fid-681222fb_17323acee17_-7649"},{"type":"Feature","geometry":{"type":"Point","coordinates":[116.403177,39.940693]},"properties":{"amenity":"restaurant"},"id":"fid-681222fb_17323acee17_-7648"},{"type":"Feature","geometry":{"type":"Point","coordinates":[116.403259,39.940697]},"properties":{"amenity":"restaurant"},"id":"fid-681222fb_17323acee17_-7647"},{"type":"Feature","geometry":{"type":"Point","coordinates":[116.397639,39.894202]},"properties":{"amenity":"restaurant"},"id":"fid-681222fb_17323acee17_-7646"},{"type":"Feature","geometry":{"type":"Point","coordinates":[116.405461,39.940733]},"properties":{"amenity":"cafe"},"id":"fid-681222fb_17323acee17_-7645"},{"type":"Feature","geometry":{"type":"Point","coordinates":[116.39831,39.895481]},"properties":{"amenity":"restaurant"},"id":"fid-681222fb_17323acee17_-7644"},{"type":"Feature","geometry":{"type":"Point","coordinates":[116.39828,39.896339]},"properties":{"amenity":"restaurant"},"id":"fid-681222fb_17323acee17_-7643"},{"type":"Feature","geometry":{"type":"Point","coordinates":[116.398226,39.881865]},"properties":{"amenity":"cafe"},"id":"fid-681222fb_17323acee17_-7642"},{"type":"Feature","geometry":{"type":"Point","coordinates":[116.385802,39.943403]},"properties":{"amenity":"cafe"},"id":"fid-681222fb_17323acee17_-7641"},{"type":"Feature","geometry":{"type":"Point","coordinates":[116.405527,39.933139]},"properties":{"amenity":"restaurant"},"id":"fid-681222fb_17323acee17_-7640"},{"type":"Feature","geometry":{"type":"Point","coordinates":[116.440142,39.927105]},"properties":{"amenity":"restaurant"},"id":"fid-681222fb_17323acee17_-763f"},{"type":"Feature","geometry":{"type":"Point","coordinates":[116.375468,39.935499]},"properties":{"amenity":"pub"},"id":"fid-681222fb_17323acee17_-763e"},{"type":"Feature","geometry":{"type":"Point","coordinates":[116.402712,39.923184]},"properties":{"amenity":"restaurant"},"id":"fid-681222fb_17323acee17_-763d"},{"type":"Feature","geometry":{"type":"Point","coordinates":[116.410686,39.912447]},"properties":{"amenity":"restaurant"},"id":"fid-681222fb_17323acee17_-763c"},{"type":"Feature","geometry":{"type":"Point","coordinates":[116.430194,39.890741]},"properties":{"amenity":"restaurant"},"id":"fid-681222fb_17323acee17_-763b"},{"type":"Feature","geometry":{"type":"Point","coordinates":[116.431384,39.887285]},"properties":{"amenity":"restaurant"},"id":"fid-681222fb_17323acee17_-763a"},{"type":"Feature","geometry":{"type":"Point","coordinates":[116.393829,39.926262]},"properties":{"amenity":"cafe"},"id":"fid-681222fb_17323acee17_-7639"},{"type":"Feature","geometry":{"type":"Point","coordinates":[116.399904,39.9403]},"properties":{"amenity":"restaurant"},"id":"fid-681222fb_17323acee17_-7638"},{"type":"Feature","geometry":{"type":"Point","coordinates":[116.372675,39.940359]},"properties":{"amenity":"cafe"},"id":"fid-681222fb_17323acee17_-7637"},{"type":"Feature","geometry":{"type":"Point","coordinates":[116.371733,39.940489]},"properties":{"amenity":"restaurant"},"id":"fid-681222fb_17323acee17_-7636"},{"type":"Feature","geometry":{"type":"Point","coordinates":[116.37163,39.946501]},"properties":{"amenity":"cafe"},"id":"fid-681222fb_17323acee17_-7635"},{"type":"Feature","geometry":{"type":"Point","coordinates":[116.37286,39.94119]},"properties":{"amenity":"restaurant"},"id":"fid-681222fb_17323acee17_-7634"},{"type":"Feature","geometry":{"type":"Point","coordinates":[116.440874,39.936211]},"properties":{"amenity":"restaurant"},"id":"fid-681222fb_17323acee17_-7633"},{"type":"Feature","geometry":{"type":"Point","coordinates":[116.394815,39.898496]},"properties":{"amenity":"restaurant"},"id":"fid-681222fb_17323acee17_-7632"},{"type":"Feature","geometry":{"type":"Point","coordinates":[116.390585,39.894462]},"properties":{"amenity":"bar"},"id":"fid-681222fb_17323acee17_-7631"},{"type":"Feature","geometry":{"type":"Point","coordinates":[116.397389,39.921124]},"properties":{"amenity":"cafe"},"id":"fid-681222fb_17323acee17_-7630"},{"type":"Feature","geometry":{"type":"Point","coordinates":[116.396472,39.921113]},"properties":{"amenity":"cafe"},"id":"fid-681222fb_17323acee17_-762f"},{"type":"Feature","geometry":{"type":"Point","coordinates":[116.397084,39.921124]},"properties":{"amenity":"restaurant"},"id":"fid-681222fb_17323acee17_-762e"},{"type":"Feature","geometry":{"type":"Point","coordinates":[116.406711,39.941131]},"properties":{"amenity":"restaurant"},"id":"fid-681222fb_17323acee17_-762d"},{"type":"Feature","geometry":{"type":"Point","coordinates":[116.403182,39.939862]},"properties":{"amenity":"bar"},"id":"fid-681222fb_17323acee17_-762c"},{"type":"Feature","geometry":{"type":"Point","coordinates":[116.418333,39.940783]},"properties":{"amenity":"restaurant"},"id":"fid-681222fb_17323acee17_-762b"},{"type":"Feature","geometry":{"type":"Point","coordinates":[116.395696,39.935374]},"properties":{"amenity":"restaurant"},"id":"fid-681222fb_17323acee17_-762a"},{"type":"Feature","geometry":{"type":"Point","coordinates":[116.422663,39.94463]},"properties":{"amenity":"restaurant"},"id":"fid-681222fb_17323acee17_-7629"},{"type":"Feature","geometry":{"type":"Point","coordinates":[116.389703,39.888002]},"properties":{"amenity":"restaurant"},"id":"fid-681222fb_17323acee17_-7628"},{"type":"Feature","geometry":{"type":"Point","coordinates":[116.438666,39.911217]},"properties":{"amenity":"restaurant"},"id":"fid-681222fb_17323acee17_-7627"},{"type":"Feature","geometry":{"type":"Point","coordinates":[116.379293,39.939319]},"properties":{"amenity":"cafe"},"id":"fid-681222fb_17323acee17_-7626"},{"type":"Feature","geometry":{"type":"Point","coordinates":[116.364557,39.885772]},"properties":{"amenity":"pub"},"id":"fid-681222fb_17323acee17_-7625"},{"type":"Feature","geometry":{"type":"Point","coordinates":[116.409758,39.941024]},"properties":{"amenity":"bar"},"id":"fid-681222fb_17323acee17_-7624"},{"type":"Feature","geometry":{"type":"Point","coordinates":[116.393827,39.937985]},"properties":{"amenity":"restaurant"},"id":"fid-681222fb_17323acee17_-7623"},{"type":"Feature","geometry":{"type":"Point","coordinates":[116.40241,39.933249]},"properties":{"amenity":"restaurant"},"id":"fid-681222fb_17323acee17_-7622"},{"type":"Feature","geometry":{"type":"Point","coordinates":[116.403461,39.933274]},"properties":{"amenity":"cafe"},"id":"fid-681222fb_17323acee17_-7621"},{"type":"Feature","geometry":{"type":"Point","coordinates":[116.393602,39.939092]},"properties":{"amenity":"restaurant"},"id":"fid-681222fb_17323acee17_-7620"},{"type":"Feature","geometry":{"type":"Point","coordinates":[116.393683,39.93907]},"properties":{"amenity":"restaurant"},"id":"fid-681222fb_17323acee17_-761f"},{"type":"Feature","geometry":{"type":"Point","coordinates":[116.393033,39.933224]},"properties":{"amenity":"restaurant"},"id":"fid-681222fb_17323acee17_-761e"},{"type":"Feature","geometry":{"type":"Point","coordinates":[116.417792,39.94078]},"properties":{"amenity":"restaurant"},"id":"fid-681222fb_17323acee17_-761d"},{"type":"Feature","geometry":{"type":"Point","coordinates":[116.402454,39.923679]},"properties":{"amenity":"restaurant"},"id":"fid-681222fb_17323acee17_-761c"},{"type":"Feature","geometry":{"type":"Point","coordinates":[116.374873,39.878746]},"properties":{"amenity":"restaurant"},"id":"fid-681222fb_17323acee17_-761b"},{"type":"Feature","geometry":{"type":"Point","coordinates":[116.345944,39.908408]},"properties":{"amenity":"restaurant"},"id":"fid-681222fb_17323acee17_-761a"},{"type":"Feature","geometry":{"type":"Point","coordinates":[116.417869,39.943253]},"properties":{"amenity":"restaurant"},"id":"fid-681222fb_17323acee17_-7619"},{"type":"Feature","geometry":{"type":"Point","coordinates":[116.424787,39.943425]},"properties":{"amenity":"restaurant"},"id":"fid-681222fb_17323acee17_-7618"},{"type":"Feature","geometry":{"type":"Point","coordinates":[116.417091,39.943181]},"properties":{"amenity":"restaurant"},"id":"fid-681222fb_17323acee17_-7617"},{"type":"Feature","geometry":{"type":"Point","coordinates":[116.42074,39.943254]},"properties":{"amenity":"restaurant"},"id":"fid-681222fb_17323acee17_-7616"},{"type":"Feature","geometry":{"type":"Point","coordinates":[116.416032,39.917127]},"properties":{"amenity":"restaurant"},"id":"fid-681222fb_17323acee17_-7615"},{"type":"Feature","geometry":{"type":"Point","coordinates":[116.372288,39.911335]},"properties":{"amenity":"cafe"},"id":"fid-681222fb_17323acee17_-7614"},{"type":"Feature","geometry":{"type":"Point","coordinates":[116.42824,39.941263]},"properties":{"amenity":"bar"},"id":"fid-681222fb_17323acee17_-7613"},{"type":"Feature","geometry":{"type":"Point","coordinates":[116.414025,39.942765]},"properties":{"amenity":"cafe"},"id":"fid-681222fb_17323acee17_-7612"},{"type":"Feature","geometry":{"type":"Point","coordinates":[116.417147,39.941764]},"properties":{"amenity":"restaurant"},"id":"fid-681222fb_17323acee17_-7611"},{"type":"Feature","geometry":{"type":"Point","coordinates":[116.410103,39.94124]},"properties":{"amenity":"restaurant"},"id":"fid-681222fb_17323acee17_-7610"},{"type":"Feature","geometry":{"type":"Point","coordinates":[116.374502,39.914335]},"properties":{"amenity":"restaurant"},"id":"fid-681222fb_17323acee17_-760f"},{"type":"Feature","geometry":{"type":"Point","coordinates":[116.352667,39.940913]},"properties":{"amenity":"restaurant"},"id":"fid-681222fb_17323acee17_-760e"},{"type":"Feature","geometry":{"type":"Point","coordinates":[116.352695,39.941604]},"properties":{"amenity":"restaurant"},"id":"fid-681222fb_17323acee17_-760d"},{"type":"Feature","geometry":{"type":"Point","coordinates":[116.346009,39.907882]},"properties":{"amenity":"restaurant"},"id":"fid-681222fb_17323acee17_-760c"},{"type":"Feature","geometry":{"type":"Point","coordinates":[116.344861,39.908084]},"properties":{"amenity":"restaurant"},"id":"fid-681222fb_17323acee17_-760b"},{"type":"Feature","geometry":{"type":"Point","coordinates":[116.344473,39.907998]},"properties":{"amenity":"restaurant"},"id":"fid-681222fb_17323acee17_-760a"},{"type":"Feature","geometry":{"type":"Point","coordinates":[116.410855,39.914048]},"properties":{"amenity":"restaurant"},"id":"fid-681222fb_17323acee17_-7609"},{"type":"Feature","geometry":{"type":"Point","coordinates":[116.373471,39.909232]},"properties":{"amenity":"cafe"},"id":"fid-681222fb_17323acee17_-7608"},{"type":"Feature","geometry":{"type":"Point","coordinates":[116.417229,39.94461]},"properties":{"amenity":"cafe"},"id":"fid-681222fb_17323acee17_-7607"},{"type":"Feature","geometry":{"type":"Point","coordinates":[116.373357,39.909913]},"properties":{"amenity":"restaurant"},"id":"fid-681222fb_17323acee17_-7606"},{"type":"Feature","geometry":{"type":"Point","coordinates":[116.43504,39.939722]},"properties":{"amenity":"cafe"},"id":"fid-681222fb_17323acee17_-7605"},{"type":"Feature","geometry":{"type":"Point","coordinates":[116.419643,39.898543]},"properties":{"amenity":"restaurant"},"id":"fid-681222fb_17323acee17_-7604"},{"type":"Feature","geometry":{"type":"Point","coordinates":[116.419305,39.899034]},"properties":{"amenity":"cafe"},"id":"fid-681222fb_17323acee17_-7603"},{"type":"Feature","geometry":{"type":"Point","coordinates":[116.408465,39.923725]},"properties":{"amenity":"restaurant"},"id":"fid-681222fb_17323acee17_-7602"},{"type":"Feature","geometry":{"type":"Point","coordinates":[116.423254,39.930149]},"properties":{"amenity":"restaurant"},"id":"fid-681222fb_17323acee17_-7601"},{"type":"Feature","geometry":{"type":"Point","coordinates":[116.417292,39.940629]},"properties":{"amenity":"cafe"},"id":"fid-681222fb_17323acee17_-7600"},{"type":"Feature","geometry":{"type":"Point","coordinates":[116.417173,39.938457]},"properties":{"amenity":"restaurant"},"id":"fid-681222fb_17323acee17_-75ff"},{"type":"Feature","geometry":{"type":"Point","coordinates":[116.417196,39.94062]},"properties":{"amenity":"restaurant"},"id":"fid-681222fb_17323acee17_-75fe"},{"type":"Feature","geometry":{"type":"Point","coordinates":[116.424479,39.930218]},"properties":{"amenity":"restaurant"},"id":"fid-681222fb_17323acee17_-75fd"},{"type":"Feature","geometry":{"type":"Point","coordinates":[116.362198,39.915056]},"properties":{"amenity":"restaurant"},"id":"fid-681222fb_17323acee17_-75fc"},{"type":"Feature","geometry":{"type":"Point","coordinates":[116.417551,39.940748]},"properties":{"amenity":"restaurant"},"id":"fid-681222fb_17323acee17_-75fb"},{"type":"Feature","geometry":{"type":"Point","coordinates":[116.4171,39.940606]},"properties":{"amenity":"restaurant"},"id":"fid-681222fb_17323acee17_-75fa"},{"type":"Feature","geometry":{"type":"Point","coordinates":[116.421487,39.936222]},"properties":{"amenity":"restaurant"},"id":"fid-681222fb_17323acee17_-75f9"},{"type":"Feature","geometry":{"type":"Point","coordinates":[116.417014,39.940599]},"properties":{"amenity":"restaurant"},"id":"fid-681222fb_17323acee17_-75f8"},{"type":"Feature","geometry":{"type":"Point","coordinates":[116.413563,39.927177]},"properties":{"amenity":"restaurant"},"id":"fid-681222fb_17323acee17_-75f7"},{"type":"Feature","geometry":{"type":"Point","coordinates":[116.396224,39.94002]},"properties":{"amenity":"restaurant"},"id":"fid-681222fb_17323acee17_-75f6"},{"type":"Feature","geometry":{"type":"Point","coordinates":[116.413565,39.927283]},"properties":{"amenity":"pub"},"id":"fid-681222fb_17323acee17_-75f5"},{"type":"Feature","geometry":{"type":"Point","coordinates":[116.417024,39.925324]},"properties":{"amenity":"restaurant"},"id":"fid-681222fb_17323acee17_-75f4"},{"type":"Feature","geometry":{"type":"Point","coordinates":[116.396222,39.939919]},"properties":{"amenity":"cafe"},"id":"fid-681222fb_17323acee17_-75f3"},{"type":"Feature","geometry":{"type":"Point","coordinates":[116.414162,39.926357]},"properties":{"amenity":"bar"},"id":"fid-681222fb_17323acee17_-75f2"},{"type":"Feature","geometry":{"type":"Point","coordinates":[116.363896,39.916499]},"properties":{"amenity":"restaurant"},"id":"fid-681222fb_17323acee17_-75f1"},{"type":"Feature","geometry":{"type":"Point","coordinates":[116.399874,39.892019]},"properties":{"amenity":"cafe"},"id":"fid-681222fb_17323acee17_-75f0"},{"type":"Feature","geometry":{"type":"Point","coordinates":[116.41401,39.917538]},"properties":{"amenity":"restaurant"},"id":"fid-681222fb_17323acee17_-75ef"},{"type":"Feature","geometry":{"type":"Point","coordinates":[116.419698,39.916199]},"properties":{"amenity":"cafe"},"id":"fid-681222fb_17323acee17_-75ee"},{"type":"Feature","geometry":{"type":"Point","coordinates":[116.420546,39.886009]},"properties":{"amenity":"cafe"},"id":"fid-681222fb_17323acee17_-75ed"},{"type":"Feature","geometry":{"type":"Point","coordinates":[116.417543,39.91713]},"properties":{"amenity":"restaurant"},"id":"fid-681222fb_17323acee17_-75ec"},{"type":"Feature","geometry":{"type":"Point","coordinates":[116.411064,39.914011]},"properties":{"amenity":"restaurant"},"id":"fid-681222fb_17323acee17_-75eb"},{"type":"Feature","geometry":{"type":"Point","coordinates":[116.402872,39.94101]},"properties":{"amenity":"restaurant"},"id":"fid-681222fb_17323acee17_-75ea"},{"type":"Feature","geometry":{"type":"Point","coordinates":[116.376988,39.935197]},"properties":{"amenity":"restaurant"},"id":"fid-681222fb_17323acee17_-75e9"},{"type":"Feature","geometry":{"type":"Point","coordinates":[116.412132,39.943721]},"properties":{"amenity":"restaurant"},"id":"fid-681222fb_17323acee17_-75e8"},{"type":"Feature","geometry":{"type":"Point","coordinates":[116.430862,39.897109]},"properties":{"amenity":"cafe"},"id":"fid-681222fb_17323acee17_-75e7"},{"type":"Feature","geometry":{"type":"Point","coordinates":[116.411421,39.943967]},"properties":{"amenity":"restaurant"},"id":"fid-681222fb_17323acee17_-75e6"},{"type":"Feature","geometry":{"type":"Point","coordinates":[116.411246,39.94394]},"properties":{"amenity":"restaurant"},"id":"fid-681222fb_17323acee17_-75e5"},{"type":"Feature","geometry":{"type":"Point","coordinates":[116.40995,39.941043]},"properties":{"amenity":"restaurant"},"id":"fid-681222fb_17323acee17_-75e4"},{"type":"Feature","geometry":{"type":"Point","coordinates":[116.406341,39.940809]},"properties":{"amenity":"cafe"},"id":"fid-681222fb_17323acee17_-75e3"},{"type":"Feature","geometry":{"type":"Point","coordinates":[116.38075,39.945199]},"properties":{"amenity":"restaurant"},"id":"fid-681222fb_17323acee17_-75e2"},{"type":"Feature","geometry":{"type":"Point","coordinates":[116.397109,39.938112]},"properties":{"amenity":"restaurant"},"id":"fid-681222fb_17323acee17_-75e1"},{"type":"Feature","geometry":{"type":"Point","coordinates":[116.3915,39.915551]},"properties":{"amenity":"bar"},"id":"fid-681222fb_17323acee17_-75e0"},{"type":"Feature","geometry":{"type":"Point","coordinates":[116.41902,39.947244]},"properties":{"amenity":"restaurant"},"id":"fid-681222fb_17323acee17_-75df"},{"type":"Feature","geometry":{"type":"Point","coordinates":[116.389145,39.893443]},"properties":{"amenity":"cafe"},"id":"fid-681222fb_17323acee17_-75de"},{"type":"Feature","geometry":{"type":"Point","coordinates":[116.343642,39.927934]},"properties":{"amenity":"restaurant"},"id":"fid-681222fb_17323acee17_-75dd"},{"type":"Feature","geometry":{"type":"Point","coordinates":[116.442072,39.914449]},"properties":{"amenity":"cafe"},"id":"fid-681222fb_17323acee17_-75dc"},{"type":"Feature","geometry":{"type":"Point","coordinates":[116.421797,39.933894]},"properties":{"amenity":"bar"},"id":"fid-681222fb_17323acee17_-75db"},{"type":"Feature","geometry":{"type":"Point","coordinates":[116.400197,39.901453]},"properties":{"amenity":"restaurant"},"id":"fid-681222fb_17323acee17_-75da"},{"type":"Feature","geometry":{"type":"Point","coordinates":[116.417554,39.888432]},"properties":{"amenity":"restaurant"},"id":"fid-681222fb_17323acee17_-75d9"},{"type":"Feature","geometry":{"type":"Point","coordinates":[116.400015,39.938183]},"properties":{"amenity":"cafe"},"id":"fid-681222fb_17323acee17_-75d8"},{"type":"Feature","geometry":{"type":"Point","coordinates":[116.402929,39.939141]},"properties":{"amenity":"cafe"},"id":"fid-681222fb_17323acee17_-75d7"},{"type":"Feature","geometry":{"type":"Point","coordinates":[116.417441,39.94144]},"properties":{"amenity":"bar"},"id":"fid-681222fb_17323acee17_-75d6"},{"type":"Feature","geometry":{"type":"Point","coordinates":[116.432483,39.886584]},"properties":{"amenity":"cafe"},"id":"fid-681222fb_17323acee17_-75d5"},{"type":"Feature","geometry":{"type":"Point","coordinates":[116.399862,39.943139]},"properties":{"amenity":"restaurant"},"id":"fid-681222fb_17323acee17_-75d4"},{"type":"Feature","geometry":{"type":"Point","coordinates":[116.404038,39.940017]},"properties":{"amenity":"restaurant"},"id":"fid-681222fb_17323acee17_-75d3"},{"type":"Feature","geometry":{"type":"Point","coordinates":[116.440311,39.92259]},"properties":{"amenity":"restaurant"},"id":"fid-681222fb_17323acee17_-75d2"}]}